; generated by PrusaSlicer 2.9.4 on 2026-07-20 at 08:37:00 UTC

; 

; external perimeters extrusion width = 4.50mm
; perimeters extrusion width = 4.50mm
; infill extrusion width = 4.50mm
; solid infill extrusion width = 4.50mm
; top infill extrusion width = 4.50mm
; first layer extrusion width = 4.50mm

M104 S200 ; set temperature
;TYPE:Custom
G28 ; home all axes
G1 Z5 F5000 ; lift nozzle
M109 S200 ; set temperature and wait for it to be reached
G21 ; set units to millimeters
G90 ; use absolute coordinates
M82 ; use absolute distances for extrusion
G92 E0
; Filament gcode
M107
;LAYER_CHANGE
;Z:2
;HEIGHT:2
G1 E-2 F2400
G92 E0
G1 Z2 F7800
G92 E0
G1 X402.108 Y27.108
G1 E2 F2400
;TYPE:Perimeter
;WIDTH:4.5
G1 F1800
G1 X347.892 Y27.108 E24.48055
G1 X347.892 Y-27.108 E46.9611
G1 X402.108 Y-27.108 E69.44165
G1 X402.108 Y26.508 E91.67341
G1 E89.67341 F2400
G92 E0
G1 X406.179 Y31.179 F7800
G1 E2 F2400
G1 F1800
G1 X343.821 Y31.179 E27.85661
G1 X343.821 Y-31.179 E53.71322
G1 X406.179 Y-31.179 E79.56983
G1 X406.179 Y30.579 E105.17765
G1 E103.17765 F2400
G92 E0
G1 X410.25 Y35.25 F7800
G1 E2 F2400
;TYPE:External perimeter
G1 F1800
G1 X339.75 Y35.25 E31.23268
G1 X339.75 Y-35.25 E60.46536
G1 X410.25 Y-35.25 E89.69804
G1 X410.25 Y34.65 E118.68193
G1 X406.294 Y35.243 F7800
G1 E116.68193 F2400
G92 E0
G1 X399.055 Y22.02 F7800
G1 E2 F2400
;TYPE:Solid infill
G1 F1800
G1 X350.945 Y22.02 E21.94871
G1 X350.872 Y22.238 E22.04404
;WIDTH:4.45209
G1 X350.799 Y22.456 E22.13824
;WIDTH:4.40417
G1 X350.727 Y22.674 E22.23119
;WIDTH:4.35626
G1 X350.654 Y22.892 E22.32315
;WIDTH:4.30834
G1 X350.581 Y23.11 E22.41399
;WIDTH:4.26043
G1 X350.509 Y23.328 E22.50358
;WIDTH:4.21252
G1 X350.436 Y23.546 E22.59217
;WIDTH:4.1646
G1 X350.363 Y23.765 E22.68
;WIDTH:4.11669
G1 X350.29 Y23.983 E22.76635
;WIDTH:4.06877
G1 X350.218 Y24.201 E22.85146
;WIDTH:4.02086
G1 X350.145 Y24.419 E22.93557
;WIDTH:3.97295
G1 X350.072 Y24.637 E23.01855
;WIDTH:3.92503
G1 X350 Y24.855 E23.1003
;WIDTH:3.87712
G1 X349.927 Y25.073 E23.18104
;WIDTH:3.8292
G1 X400.073 Y25.073 E40.54766
;WIDTH:4.5
G1 X399.055 Y17.949 E43.53162
G1 X350.945 Y17.949 E63.48033
G1 X350.945 Y13.878 E65.16836
G1 X399.055 Y13.878 E85.11707
G1 X399.055 Y9.808 E86.80469
G1 X350.945 Y9.808 E106.7534
G1 X350.945 Y5.737 E108.44143
G1 X399.055 Y5.737 E128.39014
G1 X399.055 Y1.666 E130.07817
G1 X350.945 Y1.666 E150.02688
G1 X350.945 Y-2.405 E151.71491
G1 X399.055 Y-2.405 E171.66362
G1 X399.055 Y-6.476 E173.35165
G1 X350.945 Y-6.476 E193.30036
G1 X350.945 Y-10.546 E194.98798
G1 X399.055 Y-10.546 E214.93669
G1 X399.055 Y-14.617 E216.62472
G1 X350.945 Y-14.617 E236.57343
G1 X350.945 Y-18.688 E238.26146
G1 X399.055 Y-18.688 E258.21017
G1 X399.055 Y-22.759 E259.8982
G1 X350.945 Y-22.759 E279.84691
G1 X350.918 Y-22.878 E279.89751
;WIDTH:4.45209
G1 X350.892 Y-22.997 E279.94742
;WIDTH:4.40417
G1 X350.866 Y-23.116 E279.99674
;WIDTH:4.35626
G1 X350.839 Y-23.235 E280.04555
;WIDTH:4.30834
G1 X350.813 Y-23.354 E280.09368
;WIDTH:4.26043
G1 X350.786 Y-23.473 E280.1413
;WIDTH:4.21252
G1 X350.76 Y-23.592 E280.18824
;WIDTH:4.1646
G1 X350.734 Y-23.711 E280.23459
;WIDTH:4.11669
G1 X350.707 Y-23.83 E280.28042
;WIDTH:4.06877
G1 X350.681 Y-23.949 E280.32558
;WIDTH:4.02086
G1 X350.654 Y-24.068 E280.37022
;WIDTH:3.97295
G1 X350.628 Y-24.187 E280.41419
;WIDTH:3.92503
G1 X350.602 Y-24.306 E280.45756
;WIDTH:3.87712
G1 X350.575 Y-24.425 E280.50042
;WIDTH:3.8292
G1 X399.425 Y-24.425 E297.41821
;LAYER_CHANGE
;Z:4
;HEIGHT:2
G1 E295.41821 F2400
G92 E0
G1 Z4 F7800
G1 X402.108 Y27.108
G1 E2 F2400
;TYPE:Perimeter
;WIDTH:4.5
G1 F3600
G1 X347.892 Y27.108 E24.48055
G1 X347.892 Y-27.108 E46.9611
G1 X402.108 Y-27.108 E69.44165
G1 X402.108 Y26.508 E91.67341
G1 E89.67341 F2400
G92 E0
G1 X406.179 Y31.179 F7800
G1 E2 F2400
G1 F3600
G1 X343.821 Y31.179 E27.85661
G1 X343.821 Y-31.179 E53.71322
G1 X406.179 Y-31.179 E79.56983
G1 X406.179 Y30.579 E105.17765
G1 E103.17765 F2400
G92 E0
G1 X410.25 Y35.25 F7800
G1 E2 F2400
;TYPE:External perimeter
G1 F1800
G1 X339.75 Y35.25 E31.23268
G1 X339.75 Y-35.25 E60.46536
G1 X410.25 Y-35.25 E89.69804
G1 X410.25 Y34.65 E118.68193
G1 X406.294 Y35.243 F7800
G1 E116.68193 F2400
G92 E0
G1 X398.916 Y25.887 F7800
G1 E2 F2400
;TYPE:Internal infill
;WIDTH:4.5
G1 F4800
G1 X398.916 Y-24.055 E22.70835
G1 X394.568 Y-24.055 E24.51124
G1 X394.568 Y24.055 E44.45995
G1 X390.22 Y24.055 E46.26284
G1 X390.22 Y-24.055 E66.21155
G1 X385.871 Y-24.055 E68.01485
G1 X385.871 Y24.055 E87.96356
G1 X381.523 Y24.055 E89.76645
G1 X381.523 Y-24.055 E109.71516
G1 X377.174 Y-24.055 E111.51846
G1 X377.174 Y24.055 E131.46717
G1 X372.826 Y24.055 E133.27006
G1 X372.826 Y-24.055 E153.21877
G1 X368.477 Y-24.055 E155.02207
G1 X368.477 Y24.055 E174.97078
G1 X364.129 Y24.055 E176.77367
G1 X364.129 Y-24.055 E196.72238
G1 X359.78 Y-24.055 E198.52568
G1 X359.78 Y24.055 E218.47439
G1 X355.432 Y24.055 E220.27728
G1 X355.432 Y-24.055 E240.22599
G1 X351.083 Y-24.055 E242.02929
G1 X351.083 Y25.887 E262.73764
;LAYER_CHANGE
;Z:6
;HEIGHT:2
G1 E260.73764 F2400
G92 E0
G1 Z6 F7800
G1 X402.108 Y27.108
G1 E2 F2400
;TYPE:Perimeter
;WIDTH:4.5
G1 F3600
G1 X347.892 Y27.108 E24.48055
G1 X347.892 Y-27.108 E46.9611
G1 X402.108 Y-27.108 E69.44165
G1 X402.108 Y26.508 E91.67341
G1 E89.67341 F2400
G92 E0
G1 X406.179 Y31.179 F7800
G1 E2 F2400
G1 F3600
G1 X343.821 Y31.179 E27.85661
G1 X343.821 Y-31.179 E53.71322
G1 X406.179 Y-31.179 E79.56983
G1 X406.179 Y30.579 E105.17765
G1 E103.17765 F2400
G92 E0
G1 X410.25 Y35.25 F7800
G1 E2 F2400
;TYPE:External perimeter
G1 F1800
G1 X339.75 Y35.25 E31.23268
G1 X339.75 Y-35.25 E60.46536
G1 X410.25 Y-35.25 E89.69804
G1 X410.25 Y34.65 E118.68193
G1 X406.294 Y35.243 F7800
G1 E116.68193 F2400
G92 E0
G1 X400.887 Y23.917 F7800
G1 E2 F2400
;TYPE:Internal infill
;WIDTH:4.5
G1 F4800
G1 X350.945 Y23.917 E22.70835
G1 X350.945 Y19.568 E24.51165
G1 X399.055 Y19.568 E44.46036
G1 X399.055 Y15.22 E46.26325
G1 X350.945 Y15.22 E66.21196
G1 X350.945 Y10.871 E68.01526
G1 X399.055 Y10.871 E87.96397
G1 X399.055 Y6.523 E89.76686
G1 X350.945 Y6.523 E109.71557
G1 X350.945 Y2.174 E111.51887
G1 X399.055 Y2.174 E131.46758
G1 X399.055 Y-2.174 E133.27047
G1 X350.945 Y-2.174 E153.21918
G1 X350.945 Y-6.523 E155.02248
G1 X399.055 Y-6.523 E174.97119
G1 X399.055 Y-10.871 E176.77408
G1 X350.945 Y-10.871 E196.72279
G1 X350.945 Y-15.22 E198.52609
G1 X399.055 Y-15.22 E218.4748
G1 X399.055 Y-19.568 E220.27769
G1 X350.945 Y-19.568 E240.2264
G1 X350.945 Y-23.916 E242.02929
G1 X400.887 Y-23.916 E262.73764
M106 S102
;LAYER_CHANGE
;Z:8
;HEIGHT:2
G1 E260.73764 F2400
G92 E0
G1 Z8 F7800
G1 X402.108 Y27.108
G1 E2 F2400
;TYPE:Perimeter
;WIDTH:4.5
G1 F3600
G1 X347.892 Y27.108 E24.48055
G1 X347.892 Y-27.108 E46.9611
G1 X402.108 Y-27.108 E69.44165
G1 X402.108 Y26.508 E91.67341
G1 E89.67341 F2400
G92 E0
G1 X406.179 Y31.179 F7800
G1 E2 F2400
G1 F3600
G1 X343.821 Y31.179 E27.85661
G1 X343.821 Y-31.179 E53.71322
G1 X406.179 Y-31.179 E79.56983
G1 X406.179 Y30.579 E105.17765
G1 E103.17765 F2400
G92 E0
G1 X410.25 Y35.25 F7800
G1 E2 F2400
;TYPE:External perimeter
G1 F1800
G1 X339.75 Y35.25 E31.23268
G1 X339.75 Y-35.25 E60.46536
G1 X410.25 Y-35.25 E89.69804
G1 X410.25 Y34.65 E118.68193
G1 X406.294 Y35.243 F7800
G1 E116.68193 F2400
G92 E0
G1 X352.98 Y24.055 F7800
G1 E2 F2400
;TYPE:Solid infill
G1 F1200
G1 X352.98 Y-24.055 E21.94871
G1 X352.762 Y-24.128 E22.04404
;WIDTH:4.45209
G1 X352.544 Y-24.201 E22.13824
;WIDTH:4.40417
G1 X352.326 Y-24.273 E22.23119
;WIDTH:4.35626
G1 X352.108 Y-24.346 E22.32315
;WIDTH:4.30834
G1 X351.89 Y-24.419 E22.41399
;WIDTH:4.26043
G1 X351.672 Y-24.491 E22.50358
;WIDTH:4.21252
G1 X351.454 Y-24.564 E22.59217
;WIDTH:4.1646
G1 X351.235 Y-24.637 E22.68
;WIDTH:4.11669
G1 X351.017 Y-24.71 E22.76635
;WIDTH:4.06877
G1 X350.799 Y-24.782 E22.85146
;WIDTH:4.02086
G1 X350.581 Y-24.855 E22.93557
;WIDTH:3.97295
G1 X350.363 Y-24.928 E23.01855
;WIDTH:3.92503
G1 X350.145 Y-25 E23.1003
;WIDTH:3.87712
G1 X349.927 Y-25.073 E23.18104
;WIDTH:3.8292
G1 X349.927 Y25.073 E40.54766
;WIDTH:4.5
G1 X357.051 Y24.055 E43.53162
G1 X357.051 Y-24.055 E63.48033
G1 X361.122 Y-24.055 E65.16836
G1 X361.122 Y24.055 E85.11707
G1 X365.192 Y24.055 E86.80469
G1 X365.192 Y-24.055 E106.7534
G1 X369.263 Y-24.055 E108.44143
G1 X369.263 Y24.055 E128.39014
G1 X373.334 Y24.055 E130.07817
G1 X373.334 Y-24.055 E150.02688
G1 X377.405 Y-24.055 E151.71491
G1 X377.405 Y24.055 E171.66362
G1 X381.476 Y24.055 E173.35165
G1 X381.476 Y-24.055 E193.30036
G1 X385.546 Y-24.055 E194.98798
G1 X385.546 Y24.055 E214.93669
G1 X389.617 Y24.055 E216.62472
G1 X389.617 Y-24.055 E236.57343
G1 X393.688 Y-24.055 E238.26146
G1 X393.688 Y24.055 E258.21017
G1 X397.759 Y24.055 E259.8982
G1 X397.759 Y-24.055 E279.84691
G1 X397.878 Y-24.082 E279.89751
;WIDTH:4.45209
G1 X397.997 Y-24.108 E279.94742
;WIDTH:4.40417
G1 X398.116 Y-24.134 E279.99674
;WIDTH:4.35626
G1 X398.235 Y-24.161 E280.04555
;WIDTH:4.30834
G1 X398.354 Y-24.187 E280.09368
;WIDTH:4.26043
G1 X398.473 Y-24.214 E280.1413
;WIDTH:4.21252
G1 X398.592 Y-24.24 E280.18824
;WIDTH:4.1646
G1 X398.711 Y-24.266 E280.23459
;WIDTH:4.11669
G1 X398.83 Y-24.293 E280.28042
;WIDTH:4.06877
G1 X398.949 Y-24.319 E280.32558
;WIDTH:4.02086
G1 X399.068 Y-24.346 E280.37022
;WIDTH:3.97295
G1 X399.187 Y-24.372 E280.41419
;WIDTH:3.92503
G1 X399.306 Y-24.398 E280.45756
;WIDTH:3.87712
G1 X399.425 Y-24.425 E280.50042
;WIDTH:3.8292
G1 X399.425 Y24.425 E297.41821
M106 S191.25
;LAYER_CHANGE
;Z:10
;HEIGHT:2
G1 E295.41821 F2400
G92 E0
G1 Z10 F7800
G1 X402.108 Y27.108
G1 E2 F2400
;TYPE:Perimeter
;WIDTH:4.5
G1 F3600
G1 X347.892 Y27.108 E24.48055
G1 X347.892 Y-27.108 E46.9611
G1 X402.108 Y-27.108 E69.44165
G1 X402.108 Y26.508 E91.67341
G1 E89.67341 F2400
G92 E0
G1 X406.179 Y31.179 F7800
G1 E2 F2400
G1 F3600
G1 X343.821 Y31.179 E27.85661
G1 X343.821 Y-31.179 E53.71322
G1 X406.179 Y-31.179 E79.56983
G1 X406.179 Y30.579 E105.17765
G1 E103.17765 F2400
G92 E0
G1 X410.25 Y35.25 F7800
G1 E2 F2400
;TYPE:External perimeter
G1 F1800
G1 X339.75 Y35.25 E31.23268
G1 X339.75 Y-35.25 E60.46536
G1 X410.25 Y-35.25 E89.69804
G1 X410.25 Y34.65 E118.68193
G1 X406.294 Y35.243 F7800
G1 E116.68193 F2400
G92 E0
G1 X400.887 Y23.917 F7800
G1 E2 F2400
;TYPE:Internal infill
;WIDTH:4.5
G1 F4800
G1 X350.945 Y23.917 E22.70835
G1 X350.945 Y19.568 E24.51165
G1 X399.055 Y19.568 E44.46036
G1 X399.055 Y15.22 E46.26325
G1 X350.945 Y15.22 E66.21196
G1 X350.945 Y10.871 E68.01526
G1 X399.055 Y10.871 E87.96397
G1 X399.055 Y6.523 E89.76686
G1 X350.945 Y6.523 E109.71557
G1 X350.945 Y2.174 E111.51887
G1 X399.055 Y2.174 E131.46758
G1 X399.055 Y-2.174 E133.27047
G1 X350.945 Y-2.174 E153.21918
G1 X350.945 Y-6.523 E155.02248
G1 X399.055 Y-6.523 E174.97119
G1 X399.055 Y-10.871 E176.77408
G1 X350.945 Y-10.871 E196.72279
G1 X350.945 Y-15.22 E198.52609
G1 X399.055 Y-15.22 E218.4748
G1 X399.055 Y-19.568 E220.27769
G1 X350.945 Y-19.568 E240.2264
G1 X350.945 Y-23.916 E242.02929
G1 X400.887 Y-23.916 E262.73764
;LAYER_CHANGE
;Z:12
;HEIGHT:2
G1 E260.73764 F2400
G92 E0
G1 Z12 F7800
G1 X402.108 Y27.108
G1 E2 F2400
;TYPE:Perimeter
;WIDTH:4.5
G1 F3600
G1 X347.892 Y27.108 E24.48055
G1 X347.892 Y-27.108 E46.9611
G1 X402.108 Y-27.108 E69.44165
G1 X402.108 Y26.508 E91.67341
G1 E89.67341 F2400
G92 E0
G1 X406.179 Y31.179 F7800
G1 E2 F2400
G1 F3600
G1 X343.821 Y31.179 E27.85661
G1 X343.821 Y-31.179 E53.71322
G1 X406.179 Y-31.179 E79.56983
G1 X406.179 Y30.579 E105.17765
G1 E103.17765 F2400
G92 E0
G1 X410.25 Y35.25 F7800
G1 E2 F2400
;TYPE:External perimeter
G1 F1800
G1 X339.75 Y35.25 E31.23268
G1 X339.75 Y-35.25 E60.46536
G1 X410.25 Y-35.25 E89.69804
G1 X410.25 Y34.65 E118.68193
G1 X406.294 Y35.243 F7800
G1 E116.68193 F2400
G92 E0
G1 X398.916 Y25.887 F7800
G1 E2 F2400
;TYPE:Internal infill
;WIDTH:4.5
G1 F4800
G1 X398.916 Y-24.055 E22.70835
G1 X394.568 Y-24.055 E24.51124
G1 X394.568 Y24.055 E44.45995
G1 X390.22 Y24.055 E46.26284
G1 X390.22 Y-24.055 E66.21155
G1 X385.871 Y-24.055 E68.01485
G1 X385.871 Y24.055 E87.96356
G1 X381.523 Y24.055 E89.76645
G1 X381.523 Y-24.055 E109.71516
G1 X377.174 Y-24.055 E111.51846
G1 X377.174 Y24.055 E131.46717
G1 X372.826 Y24.055 E133.27006
G1 X372.826 Y-24.055 E153.21877
G1 X368.477 Y-24.055 E155.02207
G1 X368.477 Y24.055 E174.97078
G1 X364.129 Y24.055 E176.77367
G1 X364.129 Y-24.055 E196.72238
G1 X359.78 Y-24.055 E198.52568
G1 X359.78 Y24.055 E218.47439
G1 X355.432 Y24.055 E220.27728
G1 X355.432 Y-24.055 E240.22599
G1 X351.083 Y-24.055 E242.02929
G1 X351.083 Y25.887 E262.73764
M106 S104.55
;LAYER_CHANGE
;Z:14
;HEIGHT:2
G1 E260.73764 F2400
G92 E0
G1 Z14 F7800
G1 X402.108 Y27.108
G1 E2 F2400
;TYPE:Perimeter
;WIDTH:4.5
G1 F3600
G1 X347.892 Y27.108 E24.48055
G1 X347.892 Y-27.108 E46.9611
G1 X402.108 Y-27.108 E69.44165
G1 X402.108 Y26.508 E91.67341
G1 E89.67341 F2400
G92 E0
G1 X406.179 Y31.179 F7800
G1 E2 F2400
G1 F3600
G1 X343.821 Y31.179 E27.85661
G1 X343.821 Y-31.179 E53.71322
G1 X406.179 Y-31.179 E79.56983
G1 X406.179 Y30.579 E105.17765
G1 E103.17765 F2400
G92 E0
G1 X410.25 Y35.25 F7800
G1 E2 F2400
;TYPE:External perimeter
G1 F1800
G1 X339.75 Y35.25 E31.23268
G1 X339.75 Y-35.25 E60.46536
G1 X410.25 Y-35.25 E89.69804
G1 X410.25 Y34.65 E118.68193
G1 X406.294 Y35.243 F7800
G1 E116.68193 F2400
G92 E0
G1 X399.055 Y22.02 F7800
G1 E2 F2400
;TYPE:Solid infill
G1 F1200
G1 X350.945 Y22.02 E21.94871
G1 X350.872 Y22.238 E22.04404
;WIDTH:4.45209
G1 X350.799 Y22.456 E22.13824
;WIDTH:4.40417
G1 X350.727 Y22.674 E22.23119
;WIDTH:4.35626
G1 X350.654 Y22.892 E22.32315
;WIDTH:4.30834
G1 X350.581 Y23.11 E22.41399
;WIDTH:4.26043
G1 X350.509 Y23.328 E22.50358
;WIDTH:4.21252
G1 X350.436 Y23.546 E22.59217
;WIDTH:4.1646
G1 X350.363 Y23.765 E22.68
;WIDTH:4.11669
G1 X350.29 Y23.983 E22.76635
;WIDTH:4.06877
G1 X350.218 Y24.201 E22.85146
;WIDTH:4.02086
G1 X350.145 Y24.419 E22.93557
;WIDTH:3.97295
G1 X350.072 Y24.637 E23.01855
;WIDTH:3.92503
G1 X350 Y24.855 E23.1003
;WIDTH:3.87712
G1 X349.927 Y25.073 E23.18104
;WIDTH:3.8292
G1 X400.073 Y25.073 E40.54766
;WIDTH:4.5
G1 X399.055 Y17.949 E43.53162
G1 X350.945 Y17.949 E63.48033
G1 X350.945 Y13.878 E65.16836
G1 X399.055 Y13.878 E85.11707
G1 X399.055 Y9.808 E86.80469
G1 X350.945 Y9.808 E106.7534
G1 X350.945 Y5.737 E108.44143
G1 X399.055 Y5.737 E128.39014
G1 X399.055 Y1.666 E130.07817
G1 X350.945 Y1.666 E150.02688
G1 X350.945 Y-2.405 E151.71491
G1 X399.055 Y-2.405 E171.66362
G1 X399.055 Y-6.476 E173.35165
G1 X350.945 Y-6.476 E193.30036
G1 X350.945 Y-10.546 E194.98798
G1 X399.055 Y-10.546 E214.93669
G1 X399.055 Y-14.617 E216.62472
G1 X350.945 Y-14.617 E236.57343
G1 X350.945 Y-18.688 E238.26146
G1 X399.055 Y-18.688 E258.21017
G1 X399.055 Y-22.759 E259.8982
G1 X350.945 Y-22.759 E279.84691
G1 X350.918 Y-22.878 E279.89751
;WIDTH:4.45209
G1 X350.892 Y-22.997 E279.94742
;WIDTH:4.40417
G1 X350.866 Y-23.116 E279.99674
;WIDTH:4.35626
G1 X350.839 Y-23.235 E280.04555
;WIDTH:4.30834
G1 X350.813 Y-23.354 E280.09368
;WIDTH:4.26043
G1 X350.786 Y-23.473 E280.1413
;WIDTH:4.21252
G1 X350.76 Y-23.592 E280.18824
;WIDTH:4.1646
G1 X350.734 Y-23.711 E280.23459
;WIDTH:4.11669
G1 X350.707 Y-23.83 E280.28042
;WIDTH:4.06877
G1 X350.681 Y-23.949 E280.32558
;WIDTH:4.02086
G1 X350.654 Y-24.068 E280.37022
;WIDTH:3.97295
G1 X350.628 Y-24.187 E280.41419
;WIDTH:3.92503
G1 X350.602 Y-24.306 E280.45756
;WIDTH:3.87712
G1 X350.575 Y-24.425 E280.50042
;WIDTH:3.8292
G1 X399.425 Y-24.425 E297.41821
M106 S191.25
;LAYER_CHANGE
;Z:16
;HEIGHT:2
G1 E295.41821 F2400
G92 E0
G1 Z16 F7800
G1 X402.108 Y27.108
G1 E2 F2400
;TYPE:Perimeter
;WIDTH:4.5
G1 F3600
G1 X347.892 Y27.108 E24.48055
G1 X347.892 Y-27.108 E46.9611
G1 X402.108 Y-27.108 E69.44165
G1 X402.108 Y26.508 E91.67341
G1 E89.67341 F2400
G92 E0
G1 X406.179 Y31.179 F7800
G1 E2 F2400
G1 F3600
G1 X343.821 Y31.179 E27.85661
G1 X343.821 Y-31.179 E53.71322
G1 X406.179 Y-31.179 E79.56983
G1 X406.179 Y30.579 E105.17765
G1 E103.17765 F2400
G92 E0
G1 X410.25 Y35.25 F7800
G1 E2 F2400
;TYPE:External perimeter
G1 F1800
G1 X339.75 Y35.25 E31.23268
G1 X339.75 Y-35.25 E60.46536
G1 X410.25 Y-35.25 E89.69804
G1 X410.25 Y34.65 E118.68193
G1 X406.294 Y35.243 F7800
G1 E116.68193 F2400
G92 E0
G1 X398.916 Y25.887 F7800
G1 E2 F2400
;TYPE:Internal infill
;WIDTH:4.5
G1 F4800
G1 X398.916 Y-24.055 E22.70835
G1 X394.568 Y-24.055 E24.51124
G1 X394.568 Y24.055 E44.45995
G1 X390.22 Y24.055 E46.26284
G1 X390.22 Y-24.055 E66.21155
G1 X385.871 Y-24.055 E68.01485
G1 X385.871 Y24.055 E87.96356
G1 X381.523 Y24.055 E89.76645
G1 X381.523 Y-24.055 E109.71516
G1 X377.174 Y-24.055 E111.51846
G1 X377.174 Y24.055 E131.46717
G1 X372.826 Y24.055 E133.27006
G1 X372.826 Y-24.055 E153.21877
G1 X368.477 Y-24.055 E155.02207
G1 X368.477 Y24.055 E174.97078
G1 X364.129 Y24.055 E176.77367
G1 X364.129 Y-24.055 E196.72238
G1 X359.78 Y-24.055 E198.52568
G1 X359.78 Y24.055 E218.47439
G1 X355.432 Y24.055 E220.27728
G1 X355.432 Y-24.055 E240.22599
G1 X351.083 Y-24.055 E242.02929
G1 X351.083 Y25.887 E262.73764
;LAYER_CHANGE
;Z:18
;HEIGHT:2
G1 E260.73764 F2400
G92 E0
G1 Z18 F7800
G1 X402.108 Y27.108
G1 E2 F2400
;TYPE:Perimeter
;WIDTH:4.5
G1 F3600
G1 X347.892 Y27.108 E24.48055
G1 X347.892 Y-27.108 E46.9611
G1 X402.108 Y-27.108 E69.44165
G1 X402.108 Y26.508 E91.67341
G1 E89.67341 F2400
G92 E0
G1 X406.179 Y31.179 F7800
G1 E2 F2400
G1 F3600
G1 X343.821 Y31.179 E27.85661
G1 X343.821 Y-31.179 E53.71322
G1 X406.179 Y-31.179 E79.56983
G1 X406.179 Y30.579 E105.17765
G1 E103.17765 F2400
G92 E0
G1 X410.25 Y35.25 F7800
G1 E2 F2400
;TYPE:External perimeter
G1 F1800
G1 X339.75 Y35.25 E31.23268
G1 X339.75 Y-35.25 E60.46536
G1 X410.25 Y-35.25 E89.69804
G1 X410.25 Y34.65 E118.68193
G1 X406.294 Y35.243 F7800
G1 E116.68193 F2400
G92 E0
G1 X400.887 Y23.917 F7800
G1 E2 F2400
;TYPE:Internal infill
;WIDTH:4.5
G1 F4800
G1 X350.945 Y23.917 E22.70835
G1 X350.945 Y19.568 E24.51165
G1 X399.055 Y19.568 E44.46036
G1 X399.055 Y15.22 E46.26325
G1 X350.945 Y15.22 E66.21196
G1 X350.945 Y10.871 E68.01526
G1 X399.055 Y10.871 E87.96397
G1 X399.055 Y6.523 E89.76686
G1 X350.945 Y6.523 E109.71557
G1 X350.945 Y2.174 E111.51887
G1 X399.055 Y2.174 E131.46758
G1 X399.055 Y-2.174 E133.27047
G1 X350.945 Y-2.174 E153.21918
G1 X350.945 Y-6.523 E155.02248
G1 X399.055 Y-6.523 E174.97119
G1 X399.055 Y-10.871 E176.77408
G1 X350.945 Y-10.871 E196.72279
G1 X350.945 Y-15.22 E198.52609
G1 X399.055 Y-15.22 E218.4748
G1 X399.055 Y-19.568 E220.27769
G1 X350.945 Y-19.568 E240.2264
G1 X350.945 Y-23.916 E242.02929
G1 X400.887 Y-23.916 E262.73764
M106 S102
;LAYER_CHANGE
;Z:20
;HEIGHT:2
G1 E260.73764 F2400
G92 E0
G1 Z20 F7800
G1 X402.108 Y27.108
G1 E2 F2400
;TYPE:Perimeter
;WIDTH:4.5
G1 F3600
G1 X347.892 Y27.108 E24.48055
G1 X347.892 Y-27.108 E46.9611
G1 X402.108 Y-27.108 E69.44165
G1 X402.108 Y26.508 E91.67341
G1 E89.67341 F2400
G92 E0
G1 X406.179 Y31.179 F7800
G1 E2 F2400
G1 F3600
G1 X343.821 Y31.179 E27.85661
G1 X343.821 Y-31.179 E53.71322
G1 X406.179 Y-31.179 E79.56983
G1 X406.179 Y30.579 E105.17765
G1 E103.17765 F2400
G92 E0
G1 X410.25 Y35.25 F7800
G1 E2 F2400
;TYPE:External perimeter
G1 F1800
G1 X339.75 Y35.25 E31.23268
G1 X339.75 Y-35.25 E60.46536
G1 X410.25 Y-35.25 E89.69804
G1 X410.25 Y34.65 E118.68193
G1 X406.294 Y35.243 F7800
G1 E116.68193 F2400
G92 E0
G1 X352.98 Y24.055 F7800
G1 E2 F2400
;TYPE:Solid infill
G1 F1200
G1 X352.98 Y-24.055 E21.94871
G1 X352.762 Y-24.128 E22.04404
;WIDTH:4.45209
G1 X352.544 Y-24.201 E22.13824
;WIDTH:4.40417
G1 X352.326 Y-24.273 E22.23119
;WIDTH:4.35626
G1 X352.108 Y-24.346 E22.32315
;WIDTH:4.30834
G1 X351.89 Y-24.419 E22.41399
;WIDTH:4.26043
G1 X351.672 Y-24.491 E22.50358
;WIDTH:4.21252
G1 X351.454 Y-24.564 E22.59217
;WIDTH:4.1646
G1 X351.235 Y-24.637 E22.68
;WIDTH:4.11669
G1 X351.017 Y-24.71 E22.76635
;WIDTH:4.06877
G1 X350.799 Y-24.782 E22.85146
;WIDTH:4.02086
G1 X350.581 Y-24.855 E22.93557
;WIDTH:3.97295
G1 X350.363 Y-24.928 E23.01855
;WIDTH:3.92503
G1 X350.145 Y-25 E23.1003
;WIDTH:3.87712
G1 X349.927 Y-25.073 E23.18104
;WIDTH:3.8292
G1 X349.927 Y25.073 E40.54766
;WIDTH:4.5
G1 X357.051 Y24.055 E43.53162
G1 X357.051 Y-24.055 E63.48033
G1 X361.122 Y-24.055 E65.16836
G1 X361.122 Y24.055 E85.11707
G1 X365.192 Y24.055 E86.80469
G1 X365.192 Y-24.055 E106.7534
G1 X369.263 Y-24.055 E108.44143
G1 X369.263 Y24.055 E128.39014
G1 X373.334 Y24.055 E130.07817
G1 X373.334 Y-24.055 E150.02688
G1 X377.405 Y-24.055 E151.71491
G1 X377.405 Y24.055 E171.66362
G1 X381.476 Y24.055 E173.35165
G1 X381.476 Y-24.055 E193.30036
G1 X385.546 Y-24.055 E194.98798
G1 X385.546 Y24.055 E214.93669
G1 X389.617 Y24.055 E216.62472
G1 X389.617 Y-24.055 E236.57343
G1 X393.688 Y-24.055 E238.26146
G1 X393.688 Y24.055 E258.21017
G1 X397.759 Y24.055 E259.8982
G1 X397.759 Y-24.055 E279.84691
G1 X397.878 Y-24.082 E279.89751
;WIDTH:4.45209
G1 X397.997 Y-24.108 E279.94742
;WIDTH:4.40417
G1 X398.116 Y-24.134 E279.99674
;WIDTH:4.35626
G1 X398.235 Y-24.161 E280.04555
;WIDTH:4.30834
G1 X398.354 Y-24.187 E280.09368
;WIDTH:4.26043
G1 X398.473 Y-24.214 E280.1413
;WIDTH:4.21252
G1 X398.592 Y-24.24 E280.18824
;WIDTH:4.1646
G1 X398.711 Y-24.266 E280.23459
;WIDTH:4.11669
G1 X398.83 Y-24.293 E280.28042
;WIDTH:4.06877
G1 X398.949 Y-24.319 E280.32558
;WIDTH:4.02086
G1 X399.068 Y-24.346 E280.37022
;WIDTH:3.97295
G1 X399.187 Y-24.372 E280.41419
;WIDTH:3.92503
G1 X399.306 Y-24.398 E280.45756
;WIDTH:3.87712
G1 X399.425 Y-24.425 E280.50042
;WIDTH:3.8292
G1 X399.425 Y24.425 E297.41821
M106 S191.25
;LAYER_CHANGE
;Z:22
;HEIGHT:2
G1 E295.41821 F2400
G92 E0
G1 Z22 F7800
G1 X402.108 Y27.108
G1 E2 F2400
;TYPE:Perimeter
;WIDTH:4.5
G1 F3600
G1 X347.892 Y27.108 E24.48055
G1 X347.892 Y-27.108 E46.9611
G1 X402.108 Y-27.108 E69.44165
G1 X402.108 Y26.508 E91.67341
G1 E89.67341 F2400
G92 E0
G1 X406.179 Y31.179 F7800
G1 E2 F2400
G1 F3600
G1 X343.821 Y31.179 E27.85661
G1 X343.821 Y-31.179 E53.71322
G1 X406.179 Y-31.179 E79.56983
G1 X406.179 Y30.579 E105.17765
G1 E103.17765 F2400
G92 E0
G1 X410.25 Y35.25 F7800
G1 E2 F2400
;TYPE:External perimeter
G1 F1800
G1 X339.75 Y35.25 E31.23268
G1 X339.75 Y-35.25 E60.46536
G1 X410.25 Y-35.25 E89.69804
G1 X410.25 Y34.65 E118.68193
G1 X406.294 Y35.243 F7800
G1 E116.68193 F2400
G92 E0
G1 X400.887 Y23.917 F7800
G1 E2 F2400
;TYPE:Internal infill
;WIDTH:4.5
G1 F4800
G1 X350.945 Y23.917 E22.70835
G1 X350.945 Y19.568 E24.51165
G1 X399.055 Y19.568 E44.46036
G1 X399.055 Y15.22 E46.26325
G1 X350.945 Y15.22 E66.21196
G1 X350.945 Y10.871 E68.01526
G1 X399.055 Y10.871 E87.96397
G1 X399.055 Y6.523 E89.76686
G1 X350.945 Y6.523 E109.71557
G1 X350.945 Y2.174 E111.51887
G1 X399.055 Y2.174 E131.46758
G1 X399.055 Y-2.174 E133.27047
G1 X350.945 Y-2.174 E153.21918
G1 X350.945 Y-6.523 E155.02248
G1 X399.055 Y-6.523 E174.97119
G1 X399.055 Y-10.871 E176.77408
G1 X350.945 Y-10.871 E196.72279
G1 X350.945 Y-15.22 E198.52609
G1 X399.055 Y-15.22 E218.4748
G1 X399.055 Y-19.568 E220.27769
G1 X350.945 Y-19.568 E240.2264
G1 X350.945 Y-23.916 E242.02929
G1 X400.887 Y-23.916 E262.73764
;LAYER_CHANGE
;Z:24
;HEIGHT:2
G1 E260.73764 F2400
G92 E0
G1 Z24 F7800
G1 X402.108 Y27.108
G1 E2 F2400
;TYPE:Perimeter
;WIDTH:4.5
G1 F3600
G1 X347.892 Y27.108 E24.48055
G1 X347.892 Y-27.108 E46.9611
G1 X402.108 Y-27.108 E69.44165
G1 X402.108 Y26.508 E91.67341
G1 E89.67341 F2400
G92 E0
G1 X406.179 Y31.179 F7800
G1 E2 F2400
G1 F3600
G1 X343.821 Y31.179 E27.85661
G1 X343.821 Y-31.179 E53.71322
G1 X406.179 Y-31.179 E79.56983
G1 X406.179 Y30.579 E105.17765
G1 E103.17765 F2400
G92 E0
G1 X410.25 Y35.25 F7800
G1 E2 F2400
;TYPE:External perimeter
G1 F1800
G1 X339.75 Y35.25 E31.23268
G1 X339.75 Y-35.25 E60.46536
G1 X410.25 Y-35.25 E89.69804
G1 X410.25 Y34.65 E118.68193
G1 X406.294 Y35.243 F7800
G1 E116.68193 F2400
G92 E0
G1 X398.916 Y25.887 F7800
G1 E2 F2400
;TYPE:Internal infill
;WIDTH:4.5
G1 F4800
G1 X398.916 Y-24.055 E22.70835
G1 X394.568 Y-24.055 E24.51124
G1 X394.568 Y24.055 E44.45995
G1 X390.22 Y24.055 E46.26284
G1 X390.22 Y-24.055 E66.21155
G1 X385.871 Y-24.055 E68.01485
G1 X385.871 Y24.055 E87.96356
G1 X381.523 Y24.055 E89.76645
G1 X381.523 Y-24.055 E109.71516
G1 X377.174 Y-24.055 E111.51846
G1 X377.174 Y24.055 E131.46717
G1 X372.826 Y24.055 E133.27006
G1 X372.826 Y-24.055 E153.21877
G1 X368.477 Y-24.055 E155.02207
G1 X368.477 Y24.055 E174.97078
G1 X364.129 Y24.055 E176.77367
G1 X364.129 Y-24.055 E196.72238
G1 X359.78 Y-24.055 E198.52568
G1 X359.78 Y24.055 E218.47439
G1 X355.432 Y24.055 E220.27728
G1 X355.432 Y-24.055 E240.22599
G1 X351.083 Y-24.055 E242.02929
G1 X351.083 Y25.887 E262.73764
M106 S104.55
;LAYER_CHANGE
;Z:26
;HEIGHT:2
G1 E260.73764 F2400
G92 E0
G1 Z26 F7800
G1 X402.108 Y27.108
G1 E2 F2400
;TYPE:Perimeter
;WIDTH:4.5
G1 F3600
G1 X347.892 Y27.108 E24.48055
G1 X347.892 Y-27.108 E46.9611
G1 X402.108 Y-27.108 E69.44165
G1 X402.108 Y26.508 E91.67341
G1 E89.67341 F2400
G92 E0
G1 X406.179 Y31.179 F7800
G1 E2 F2400
G1 F3600
G1 X343.821 Y31.179 E27.85661
G1 X343.821 Y-31.179 E53.71322
G1 X406.179 Y-31.179 E79.56983
G1 X406.179 Y30.579 E105.17765
G1 E103.17765 F2400
G92 E0
G1 X410.25 Y35.25 F7800
G1 E2 F2400
;TYPE:External perimeter
G1 F1800
G1 X339.75 Y35.25 E31.23268
G1 X339.75 Y-35.25 E60.46536
G1 X410.25 Y-35.25 E89.69804
G1 X410.25 Y34.65 E118.68193
G1 X406.294 Y35.243 F7800
G1 E116.68193 F2400
G92 E0
G1 X399.055 Y22.02 F7800
G1 E2 F2400
;TYPE:Solid infill
G1 F1200
G1 X350.945 Y22.02 E21.94871
G1 X350.872 Y22.238 E22.04404
;WIDTH:4.45209
G1 X350.799 Y22.456 E22.13824
;WIDTH:4.40417
G1 X350.727 Y22.674 E22.23119
;WIDTH:4.35626
G1 X350.654 Y22.892 E22.32315
;WIDTH:4.30834
G1 X350.581 Y23.11 E22.41399
;WIDTH:4.26043
G1 X350.509 Y23.328 E22.50358
;WIDTH:4.21252
G1 X350.436 Y23.546 E22.59217
;WIDTH:4.1646
G1 X350.363 Y23.765 E22.68
;WIDTH:4.11669
G1 X350.29 Y23.983 E22.76635
;WIDTH:4.06877
G1 X350.218 Y24.201 E22.85146
;WIDTH:4.02086
G1 X350.145 Y24.419 E22.93557
;WIDTH:3.97295
G1 X350.072 Y24.637 E23.01855
;WIDTH:3.92503
G1 X350 Y24.855 E23.1003
;WIDTH:3.87712
G1 X349.927 Y25.073 E23.18104
;WIDTH:3.8292
G1 X400.073 Y25.073 E40.54766
;WIDTH:4.5
G1 X399.055 Y17.949 E43.53162
G1 X350.945 Y17.949 E63.48033
G1 X350.945 Y13.878 E65.16836
G1 X399.055 Y13.878 E85.11707
G1 X399.055 Y9.808 E86.80469
G1 X350.945 Y9.808 E106.7534
G1 X350.945 Y5.737 E108.44143
G1 X399.055 Y5.737 E128.39014
G1 X399.055 Y1.666 E130.07817
G1 X350.945 Y1.666 E150.02688
G1 X350.945 Y-2.405 E151.71491
G1 X399.055 Y-2.405 E171.66362
G1 X399.055 Y-6.476 E173.35165
G1 X350.945 Y-6.476 E193.30036
G1 X350.945 Y-10.546 E194.98798
G1 X399.055 Y-10.546 E214.93669
G1 X399.055 Y-14.617 E216.62472
G1 X350.945 Y-14.617 E236.57343
G1 X350.945 Y-18.688 E238.26146
G1 X399.055 Y-18.688 E258.21017
G1 X399.055 Y-22.759 E259.8982
G1 X350.945 Y-22.759 E279.84691
G1 X350.918 Y-22.878 E279.89751
;WIDTH:4.45209
G1 X350.892 Y-22.997 E279.94742
;WIDTH:4.40417
G1 X350.866 Y-23.116 E279.99674
;WIDTH:4.35626
G1 X350.839 Y-23.235 E280.04555
;WIDTH:4.30834
G1 X350.813 Y-23.354 E280.09368
;WIDTH:4.26043
G1 X350.786 Y-23.473 E280.1413
;WIDTH:4.21252
G1 X350.76 Y-23.592 E280.18824
;WIDTH:4.1646
G1 X350.734 Y-23.711 E280.23459
;WIDTH:4.11669
G1 X350.707 Y-23.83 E280.28042
;WIDTH:4.06877
G1 X350.681 Y-23.949 E280.32558
;WIDTH:4.02086
G1 X350.654 Y-24.068 E280.37022
;WIDTH:3.97295
G1 X350.628 Y-24.187 E280.41419
;WIDTH:3.92503
G1 X350.602 Y-24.306 E280.45756
;WIDTH:3.87712
G1 X350.575 Y-24.425 E280.50042
;WIDTH:3.8292
G1 X399.425 Y-24.425 E297.41821
M106 S191.25
;LAYER_CHANGE
;Z:28
;HEIGHT:2
G1 E295.41821 F2400
G92 E0
G1 Z28 F7800
G1 X402.108 Y27.108
G1 E2 F2400
;TYPE:Perimeter
;WIDTH:4.5
G1 F3600
G1 X347.892 Y27.108 E24.48055
G1 X347.892 Y-27.108 E46.9611
G1 X402.108 Y-27.108 E69.44165
G1 X402.108 Y26.508 E91.67341
G1 E89.67341 F2400
G92 E0
G1 X406.179 Y31.179 F7800
G1 E2 F2400
G1 F3600
G1 X343.821 Y31.179 E27.85661
G1 X343.821 Y-31.179 E53.71322
G1 X406.179 Y-31.179 E79.56983
G1 X406.179 Y30.579 E105.17765
G1 E103.17765 F2400
G92 E0
G1 X410.25 Y35.25 F7800
G1 E2 F2400
;TYPE:External perimeter
G1 F1800
G1 X339.75 Y35.25 E31.23268
G1 X339.75 Y-35.25 E60.46536
G1 X410.25 Y-35.25 E89.69804
G1 X410.25 Y34.65 E118.68193
G1 X406.294 Y35.243 F7800
G1 E116.68193 F2400
G92 E0
G1 X398.916 Y25.887 F7800
G1 E2 F2400
;TYPE:Internal infill
;WIDTH:4.5
G1 F4800
G1 X398.916 Y-24.055 E22.70835
G1 X394.568 Y-24.055 E24.51124
G1 X394.568 Y24.055 E44.45995
G1 X390.22 Y24.055 E46.26284
G1 X390.22 Y-24.055 E66.21155
G1 X385.871 Y-24.055 E68.01485
G1 X385.871 Y24.055 E87.96356
G1 X381.523 Y24.055 E89.76645
G1 X381.523 Y-24.055 E109.71516
G1 X377.174 Y-24.055 E111.51846
G1 X377.174 Y24.055 E131.46717
G1 X372.826 Y24.055 E133.27006
G1 X372.826 Y-24.055 E153.21877
G1 X368.477 Y-24.055 E155.02207
G1 X368.477 Y24.055 E174.97078
G1 X364.129 Y24.055 E176.77367
G1 X364.129 Y-24.055 E196.72238
G1 X359.78 Y-24.055 E198.52568
G1 X359.78 Y24.055 E218.47439
G1 X355.432 Y24.055 E220.27728
G1 X355.432 Y-24.055 E240.22599
G1 X351.083 Y-24.055 E242.02929
G1 X351.083 Y25.887 E262.73764
;LAYER_CHANGE
;Z:30
;HEIGHT:2
G1 E260.73764 F2400
G92 E0
G1 Z30 F7800
G1 X402.108 Y27.108
G1 E2 F2400
;TYPE:Perimeter
;WIDTH:4.5
G1 F3600
G1 X347.892 Y27.108 E24.48055
G1 X347.892 Y-27.108 E46.9611
G1 X402.108 Y-27.108 E69.44165
G1 X402.108 Y26.508 E91.67341
G1 E89.67341 F2400
G92 E0
G1 X406.179 Y31.179 F7800
G1 E2 F2400
G1 F3600
G1 X343.821 Y31.179 E27.85661
G1 X343.821 Y-31.179 E53.71322
G1 X406.179 Y-31.179 E79.56983
G1 X406.179 Y30.579 E105.17765
G1 E103.17765 F2400
G92 E0
G1 X410.25 Y35.25 F7800
G1 E2 F2400
;TYPE:External perimeter
G1 F1800
G1 X339.75 Y35.25 E31.23268
G1 X339.75 Y-35.25 E60.46536
G1 X410.25 Y-35.25 E89.69804
G1 X410.25 Y34.65 E118.68193
G1 X406.294 Y35.243 F7800
G1 E116.68193 F2400
G92 E0
G1 X400.887 Y23.917 F7800
G1 E2 F2400
;TYPE:Internal infill
;WIDTH:4.5
G1 F4800
G1 X350.945 Y23.917 E22.70835
G1 X350.945 Y19.568 E24.51165
G1 X399.055 Y19.568 E44.46036
G1 X399.055 Y15.22 E46.26325
G1 X350.945 Y15.22 E66.21196
G1 X350.945 Y10.871 E68.01526
G1 X399.055 Y10.871 E87.96397
G1 X399.055 Y6.523 E89.76686
G1 X350.945 Y6.523 E109.71557
G1 X350.945 Y2.174 E111.51887
G1 X399.055 Y2.174 E131.46758
G1 X399.055 Y-2.174 E133.27047
G1 X350.945 Y-2.174 E153.21918
G1 X350.945 Y-6.523 E155.02248
G1 X399.055 Y-6.523 E174.97119
G1 X399.055 Y-10.871 E176.77408
G1 X350.945 Y-10.871 E196.72279
G1 X350.945 Y-15.22 E198.52609
G1 X399.055 Y-15.22 E218.4748
G1 X399.055 Y-19.568 E220.27769
G1 X350.945 Y-19.568 E240.2264
G1 X350.945 Y-23.916 E242.02929
G1 X400.887 Y-23.916 E262.73764
M106 S102
;LAYER_CHANGE
;Z:32
;HEIGHT:2
G1 E260.73764 F2400
G92 E0
G1 Z32 F7800
G1 X402.108 Y27.108
G1 E2 F2400
;TYPE:Perimeter
;WIDTH:4.5
G1 F3600
G1 X347.892 Y27.108 E24.48055
G1 X347.892 Y-27.108 E46.9611
G1 X402.108 Y-27.108 E69.44165
G1 X402.108 Y26.508 E91.67341
G1 E89.67341 F2400
G92 E0
G1 X406.179 Y31.179 F7800
G1 E2 F2400
G1 F3600
G1 X343.821 Y31.179 E27.85661
G1 X343.821 Y-31.179 E53.71322
G1 X406.179 Y-31.179 E79.56983
G1 X406.179 Y30.579 E105.17765
G1 E103.17765 F2400
G92 E0
G1 X410.25 Y35.25 F7800
G1 E2 F2400
;TYPE:External perimeter
G1 F1800
G1 X339.75 Y35.25 E31.23268
G1 X339.75 Y-35.25 E60.46536
G1 X410.25 Y-35.25 E89.69804
G1 X410.25 Y34.65 E118.68193
G1 X406.294 Y35.243 F7800
G1 E116.68193 F2400
G92 E0
G1 X352.98 Y24.055 F7800
G1 E2 F2400
;TYPE:Solid infill
G1 F1200
G1 X352.98 Y-24.055 E21.94871
G1 X352.762 Y-24.128 E22.04404
;WIDTH:4.45209
G1 X352.544 Y-24.201 E22.13824
;WIDTH:4.40417
G1 X352.326 Y-24.273 E22.23119
;WIDTH:4.35626
G1 X352.108 Y-24.346 E22.32315
;WIDTH:4.30834
G1 X351.89 Y-24.419 E22.41399
;WIDTH:4.26043
G1 X351.672 Y-24.491 E22.50358
;WIDTH:4.21252
G1 X351.454 Y-24.564 E22.59217
;WIDTH:4.1646
G1 X351.235 Y-24.637 E22.68
;WIDTH:4.11669
G1 X351.017 Y-24.71 E22.76635
;WIDTH:4.06877
G1 X350.799 Y-24.782 E22.85146
;WIDTH:4.02086
G1 X350.581 Y-24.855 E22.93557
;WIDTH:3.97295
G1 X350.363 Y-24.928 E23.01855
;WIDTH:3.92503
G1 X350.145 Y-25 E23.1003
;WIDTH:3.87712
G1 X349.927 Y-25.073 E23.18104
;WIDTH:3.8292
G1 X349.927 Y25.073 E40.54766
;WIDTH:4.5
G1 X357.051 Y24.055 E43.53162
G1 X357.051 Y-24.055 E63.48033
G1 X361.122 Y-24.055 E65.16836
G1 X361.122 Y24.055 E85.11707
G1 X365.192 Y24.055 E86.80469
G1 X365.192 Y-24.055 E106.7534
G1 X369.263 Y-24.055 E108.44143
G1 X369.263 Y24.055 E128.39014
G1 X373.334 Y24.055 E130.07817
G1 X373.334 Y-24.055 E150.02688
G1 X377.405 Y-24.055 E151.71491
G1 X377.405 Y24.055 E171.66362
G1 X381.476 Y24.055 E173.35165
G1 X381.476 Y-24.055 E193.30036
G1 X385.546 Y-24.055 E194.98798
G1 X385.546 Y24.055 E214.93669
G1 X389.617 Y24.055 E216.62472
G1 X389.617 Y-24.055 E236.57343
G1 X393.688 Y-24.055 E238.26146
G1 X393.688 Y24.055 E258.21017
G1 X397.759 Y24.055 E259.8982
G1 X397.759 Y-24.055 E279.84691
G1 X397.878 Y-24.082 E279.89751
;WIDTH:4.45209
G1 X397.997 Y-24.108 E279.94742
;WIDTH:4.40417
G1 X398.116 Y-24.134 E279.99674
;WIDTH:4.35626
G1 X398.235 Y-24.161 E280.04555
;WIDTH:4.30834
G1 X398.354 Y-24.187 E280.09368
;WIDTH:4.26043
G1 X398.473 Y-24.214 E280.1413
;WIDTH:4.21252
G1 X398.592 Y-24.24 E280.18824
;WIDTH:4.1646
G1 X398.711 Y-24.266 E280.23459
;WIDTH:4.11669
G1 X398.83 Y-24.293 E280.28042
;WIDTH:4.06877
G1 X398.949 Y-24.319 E280.32558
;WIDTH:4.02086
G1 X399.068 Y-24.346 E280.37022
;WIDTH:3.97295
G1 X399.187 Y-24.372 E280.41419
;WIDTH:3.92503
G1 X399.306 Y-24.398 E280.45756
;WIDTH:3.87712
G1 X399.425 Y-24.425 E280.50042
;WIDTH:3.8292
G1 X399.425 Y24.425 E297.41821
M106 S191.25
;LAYER_CHANGE
;Z:34
;HEIGHT:2
G1 E295.41821 F2400
G92 E0
G1 Z34 F7800
G1 X402.108 Y27.108
G1 E2 F2400
;TYPE:Perimeter
;WIDTH:4.5
G1 F3600
G1 X347.892 Y27.108 E24.48055
G1 X347.892 Y-27.108 E46.9611
G1 X402.108 Y-27.108 E69.44165
G1 X402.108 Y26.508 E91.67341
G1 E89.67341 F2400
G92 E0
G1 X406.179 Y31.179 F7800
G1 E2 F2400
G1 F3600
G1 X343.821 Y31.179 E27.85661
G1 X343.821 Y-31.179 E53.71322
G1 X406.179 Y-31.179 E79.56983
G1 X406.179 Y30.579 E105.17765
G1 E103.17765 F2400
G92 E0
G1 X410.25 Y35.25 F7800
G1 E2 F2400
;TYPE:External perimeter
G1 F1800
G1 X339.75 Y35.25 E31.23268
G1 X339.75 Y-35.25 E60.46536
G1 X410.25 Y-35.25 E89.69804
G1 X410.25 Y34.65 E118.68193
G1 X406.294 Y35.243 F7800
G1 E116.68193 F2400
G92 E0
G1 X400.887 Y23.917 F7800
G1 E2 F2400
;TYPE:Internal infill
;WIDTH:4.5
G1 F4800
G1 X350.945 Y23.917 E22.70835
G1 X350.945 Y19.568 E24.51165
G1 X399.055 Y19.568 E44.46036
G1 X399.055 Y15.22 E46.26325
G1 X350.945 Y15.22 E66.21196
G1 X350.945 Y10.871 E68.01526
G1 X399.055 Y10.871 E87.96397
G1 X399.055 Y6.523 E89.76686
G1 X350.945 Y6.523 E109.71557
G1 X350.945 Y2.174 E111.51887
G1 X399.055 Y2.174 E131.46758
G1 X399.055 Y-2.174 E133.27047
G1 X350.945 Y-2.174 E153.21918
G1 X350.945 Y-6.523 E155.02248
G1 X399.055 Y-6.523 E174.97119
G1 X399.055 Y-10.871 E176.77408
G1 X350.945 Y-10.871 E196.72279
G1 X350.945 Y-15.22 E198.52609
G1 X399.055 Y-15.22 E218.4748
G1 X399.055 Y-19.568 E220.27769
G1 X350.945 Y-19.568 E240.2264
G1 X350.945 Y-23.916 E242.02929
G1 X400.887 Y-23.916 E262.73764
;LAYER_CHANGE
;Z:36
;HEIGHT:2
G1 E260.73764 F2400
G92 E0
G1 Z36 F7800
G1 X402.108 Y27.108
G1 E2 F2400
;TYPE:Perimeter
;WIDTH:4.5
G1 F3600
G1 X347.892 Y27.108 E24.48055
G1 X347.892 Y-27.108 E46.9611
G1 X402.108 Y-27.108 E69.44165
G1 X402.108 Y26.508 E91.67341
G1 E89.67341 F2400
G92 E0
G1 X406.179 Y31.179 F7800
G1 E2 F2400
G1 F3600
G1 X343.821 Y31.179 E27.85661
G1 X343.821 Y-31.179 E53.71322
G1 X406.179 Y-31.179 E79.56983
G1 X406.179 Y30.579 E105.17765
G1 E103.17765 F2400
G92 E0
G1 X410.25 Y35.25 F7800
G1 E2 F2400
;TYPE:External perimeter
G1 F1800
G1 X339.75 Y35.25 E31.23268
G1 X339.75 Y-35.25 E60.46536
G1 X410.25 Y-35.25 E89.69804
G1 X410.25 Y34.65 E118.68193
G1 X406.294 Y35.243 F7800
G1 E116.68193 F2400
G92 E0
G1 X398.916 Y25.887 F7800
G1 E2 F2400
;TYPE:Internal infill
;WIDTH:4.5
G1 F4800
G1 X398.916 Y-24.055 E22.70835
G1 X394.568 Y-24.055 E24.51124
G1 X394.568 Y24.055 E44.45995
G1 X390.22 Y24.055 E46.26284
G1 X390.22 Y-24.055 E66.21155
G1 X385.871 Y-24.055 E68.01485
G1 X385.871 Y24.055 E87.96356
G1 X381.523 Y24.055 E89.76645
G1 X381.523 Y-24.055 E109.71516
G1 X377.174 Y-24.055 E111.51846
G1 X377.174 Y24.055 E131.46717
G1 X372.826 Y24.055 E133.27006
G1 X372.826 Y-24.055 E153.21877
G1 X368.477 Y-24.055 E155.02207
G1 X368.477 Y24.055 E174.97078
G1 X364.129 Y24.055 E176.77367
G1 X364.129 Y-24.055 E196.72238
G1 X359.78 Y-24.055 E198.52568
G1 X359.78 Y24.055 E218.47439
G1 X355.432 Y24.055 E220.27728
G1 X355.432 Y-24.055 E240.22599
G1 X351.083 Y-24.055 E242.02929
G1 X351.083 Y25.887 E262.73764
M106 S104.55
;LAYER_CHANGE
;Z:38
;HEIGHT:2
G1 E260.73764 F2400
G92 E0
G1 Z38 F7800
G1 X402.108 Y27.108
G1 E2 F2400
;TYPE:Perimeter
;WIDTH:4.5
G1 F3600
G1 X347.892 Y27.108 E24.48055
G1 X347.892 Y-27.108 E46.9611
G1 X402.108 Y-27.108 E69.44165
G1 X402.108 Y26.508 E91.67341
G1 E89.67341 F2400
G92 E0
G1 X406.179 Y31.179 F7800
G1 E2 F2400
G1 F3600
G1 X343.821 Y31.179 E27.85661
G1 X343.821 Y-31.179 E53.71322
G1 X406.179 Y-31.179 E79.56983
G1 X406.179 Y30.579 E105.17765
G1 E103.17765 F2400
G92 E0
G1 X410.25 Y35.25 F7800
G1 E2 F2400
;TYPE:External perimeter
G1 F1800
G1 X339.75 Y35.25 E31.23268
G1 X339.75 Y-35.25 E60.46536
G1 X410.25 Y-35.25 E89.69804
G1 X410.25 Y34.65 E118.68193
G1 X406.294 Y35.243 F7800
G1 E116.68193 F2400
G92 E0
G1 X399.055 Y22.02 F7800
G1 E2 F2400
;TYPE:Solid infill
G1 F1200
G1 X350.945 Y22.02 E21.94871
G1 X350.872 Y22.238 E22.04404
;WIDTH:4.45209
G1 X350.799 Y22.456 E22.13824
;WIDTH:4.40417
G1 X350.727 Y22.674 E22.23119
;WIDTH:4.35626
G1 X350.654 Y22.892 E22.32315
;WIDTH:4.30834
G1 X350.581 Y23.11 E22.41399
;WIDTH:4.26043
G1 X350.509 Y23.328 E22.50358
;WIDTH:4.21252
G1 X350.436 Y23.546 E22.59217
;WIDTH:4.1646
G1 X350.363 Y23.765 E22.68
;WIDTH:4.11669
G1 X350.29 Y23.983 E22.76635
;WIDTH:4.06877
G1 X350.218 Y24.201 E22.85146
;WIDTH:4.02086
G1 X350.145 Y24.419 E22.93557
;WIDTH:3.97295
G1 X350.072 Y24.637 E23.01855
;WIDTH:3.92503
G1 X350 Y24.855 E23.1003
;WIDTH:3.87712
G1 X349.927 Y25.073 E23.18104
;WIDTH:3.8292
G1 X400.073 Y25.073 E40.54766
;WIDTH:4.5
G1 X399.055 Y17.949 E43.53162
G1 X350.945 Y17.949 E63.48033
G1 X350.945 Y13.878 E65.16836
G1 X399.055 Y13.878 E85.11707
G1 X399.055 Y9.808 E86.80469
G1 X350.945 Y9.808 E106.7534
G1 X350.945 Y5.737 E108.44143
G1 X399.055 Y5.737 E128.39014
G1 X399.055 Y1.666 E130.07817
G1 X350.945 Y1.666 E150.02688
G1 X350.945 Y-2.405 E151.71491
G1 X399.055 Y-2.405 E171.66362
G1 X399.055 Y-6.476 E173.35165
G1 X350.945 Y-6.476 E193.30036
G1 X350.945 Y-10.546 E194.98798
G1 X399.055 Y-10.546 E214.93669
G1 X399.055 Y-14.617 E216.62472
G1 X350.945 Y-14.617 E236.57343
G1 X350.945 Y-18.688 E238.26146
G1 X399.055 Y-18.688 E258.21017
G1 X399.055 Y-22.759 E259.8982
G1 X350.945 Y-22.759 E279.84691
G1 X350.918 Y-22.878 E279.89751
;WIDTH:4.45209
G1 X350.892 Y-22.997 E279.94742
;WIDTH:4.40417
G1 X350.866 Y-23.116 E279.99674
;WIDTH:4.35626
G1 X350.839 Y-23.235 E280.04555
;WIDTH:4.30834
G1 X350.813 Y-23.354 E280.09368
;WIDTH:4.26043
G1 X350.786 Y-23.473 E280.1413
;WIDTH:4.21252
G1 X350.76 Y-23.592 E280.18824
;WIDTH:4.1646
G1 X350.734 Y-23.711 E280.23459
;WIDTH:4.11669
G1 X350.707 Y-23.83 E280.28042
;WIDTH:4.06877
G1 X350.681 Y-23.949 E280.32558
;WIDTH:4.02086
G1 X350.654 Y-24.068 E280.37022
;WIDTH:3.97295
G1 X350.628 Y-24.187 E280.41419
;WIDTH:3.92503
G1 X350.602 Y-24.306 E280.45756
;WIDTH:3.87712
G1 X350.575 Y-24.425 E280.50042
;WIDTH:3.8292
G1 X399.425 Y-24.425 E297.41821
M106 S191.25
;LAYER_CHANGE
;Z:40
;HEIGHT:2
G1 E295.41821 F2400
G92 E0
G1 Z40 F7800
G1 X402.108 Y27.108
G1 E2 F2400
;TYPE:Perimeter
;WIDTH:4.5
G1 F3600
G1 X347.892 Y27.108 E24.48055
G1 X347.892 Y-27.108 E46.9611
G1 X402.108 Y-27.108 E69.44165
G1 X402.108 Y26.508 E91.67341
G1 E89.67341 F2400
G92 E0
G1 X406.179 Y31.179 F7800
G1 E2 F2400
G1 F3600
G1 X343.821 Y31.179 E27.85661
G1 X343.821 Y-31.179 E53.71322
G1 X406.179 Y-31.179 E79.56983
G1 X406.179 Y30.579 E105.17765
G1 E103.17765 F2400
G92 E0
G1 X410.25 Y35.25 F7800
G1 E2 F2400
;TYPE:External perimeter
G1 F1800
G1 X339.75 Y35.25 E31.23268
G1 X339.75 Y-35.25 E60.46536
G1 X410.25 Y-35.25 E89.69804
G1 X410.25 Y34.65 E118.68193
G1 X406.294 Y35.243 F7800
G1 E116.68193 F2400
G92 E0
G1 X398.916 Y25.887 F7800
G1 E2 F2400
;TYPE:Internal infill
;WIDTH:4.5
G1 F4800
G1 X398.916 Y-24.055 E22.70835
G1 X394.568 Y-24.055 E24.51124
G1 X394.568 Y24.055 E44.45995
G1 X390.22 Y24.055 E46.26284
G1 X390.22 Y-24.055 E66.21155
G1 X385.871 Y-24.055 E68.01485
G1 X385.871 Y24.055 E87.96356
G1 X381.523 Y24.055 E89.76645
G1 X381.523 Y-24.055 E109.71516
G1 X377.174 Y-24.055 E111.51846
G1 X377.174 Y24.055 E131.46717
G1 X372.826 Y24.055 E133.27006
G1 X372.826 Y-24.055 E153.21877
G1 X368.477 Y-24.055 E155.02207
G1 X368.477 Y24.055 E174.97078
G1 X364.129 Y24.055 E176.77367
G1 X364.129 Y-24.055 E196.72238
G1 X359.78 Y-24.055 E198.52568
G1 X359.78 Y24.055 E218.47439
G1 X355.432 Y24.055 E220.27728
G1 X355.432 Y-24.055 E240.22599
G1 X351.083 Y-24.055 E242.02929
G1 X351.083 Y25.887 E262.73764
;LAYER_CHANGE
;Z:42
;HEIGHT:2
G1 E260.73764 F2400
G92 E0
G1 Z42 F7800
G1 X402.108 Y27.108
G1 E2 F2400
;TYPE:Perimeter
;WIDTH:4.5
G1 F3600
G1 X347.892 Y27.108 E24.48055
G1 X347.892 Y-27.108 E46.9611
G1 X402.108 Y-27.108 E69.44165
G1 X402.108 Y26.508 E91.67341
G1 E89.67341 F2400
G92 E0
G1 X406.179 Y31.179 F7800
G1 E2 F2400
G1 F3600
G1 X343.821 Y31.179 E27.85661
G1 X343.821 Y-31.179 E53.71322
G1 X406.179 Y-31.179 E79.56983
G1 X406.179 Y30.579 E105.17765
G1 E103.17765 F2400
G92 E0
G1 X410.25 Y35.25 F7800
G1 E2 F2400
;TYPE:External perimeter
G1 F1800
G1 X339.75 Y35.25 E31.23268
G1 X339.75 Y-35.25 E60.46536
G1 X410.25 Y-35.25 E89.69804
G1 X410.25 Y34.65 E118.68193
G1 X406.294 Y35.243 F7800
G1 E116.68193 F2400
G92 E0
G1 X400.887 Y23.917 F7800
G1 E2 F2400
;TYPE:Internal infill
;WIDTH:4.5
G1 F4800
G1 X350.945 Y23.917 E22.70835
G1 X350.945 Y19.568 E24.51165
G1 X399.055 Y19.568 E44.46036
G1 X399.055 Y15.22 E46.26325
G1 X350.945 Y15.22 E66.21196
G1 X350.945 Y10.871 E68.01526
G1 X399.055 Y10.871 E87.96397
G1 X399.055 Y6.523 E89.76686
G1 X350.945 Y6.523 E109.71557
G1 X350.945 Y2.174 E111.51887
G1 X399.055 Y2.174 E131.46758
G1 X399.055 Y-2.174 E133.27047
G1 X350.945 Y-2.174 E153.21918
G1 X350.945 Y-6.523 E155.02248
G1 X399.055 Y-6.523 E174.97119
G1 X399.055 Y-10.871 E176.77408
G1 X350.945 Y-10.871 E196.72279
G1 X350.945 Y-15.22 E198.52609
G1 X399.055 Y-15.22 E218.4748
G1 X399.055 Y-19.568 E220.27769
G1 X350.945 Y-19.568 E240.2264
G1 X350.945 Y-23.916 E242.02929
G1 X400.887 Y-23.916 E262.73764
M106 S102
;LAYER_CHANGE
;Z:44
;HEIGHT:2
G1 E260.73764 F2400
G92 E0
G1 Z44 F7800
G1 X402.108 Y27.108
G1 E2 F2400
;TYPE:Perimeter
;WIDTH:4.5
G1 F3600
G1 X347.892 Y27.108 E24.48055
G1 X347.892 Y-27.108 E46.9611
G1 X402.108 Y-27.108 E69.44165
G1 X402.108 Y26.508 E91.67341
G1 E89.67341 F2400
G92 E0
G1 X406.179 Y31.179 F7800
G1 E2 F2400
G1 F3600
G1 X343.821 Y31.179 E27.85661
G1 X343.821 Y-31.179 E53.71322
G1 X406.179 Y-31.179 E79.56983
G1 X406.179 Y30.579 E105.17765
G1 E103.17765 F2400
G92 E0
G1 X410.25 Y35.25 F7800
G1 E2 F2400
;TYPE:External perimeter
G1 F1800
G1 X339.75 Y35.25 E31.23268
G1 X339.75 Y-35.25 E60.46536
G1 X410.25 Y-35.25 E89.69804
G1 X410.25 Y34.65 E118.68193
G1 X406.294 Y35.243 F7800
G1 E116.68193 F2400
G92 E0
G1 X352.98 Y24.055 F7800
G1 E2 F2400
;TYPE:Solid infill
G1 F1200
G1 X352.98 Y-24.055 E21.94871
G1 X352.762 Y-24.128 E22.04404
;WIDTH:4.45209
G1 X352.544 Y-24.201 E22.13824
;WIDTH:4.40417
G1 X352.326 Y-24.273 E22.23119
;WIDTH:4.35626
G1 X352.108 Y-24.346 E22.32315
;WIDTH:4.30834
G1 X351.89 Y-24.419 E22.41399
;WIDTH:4.26043
G1 X351.672 Y-24.491 E22.50358
;WIDTH:4.21252
G1 X351.454 Y-24.564 E22.59217
;WIDTH:4.1646
G1 X351.235 Y-24.637 E22.68
;WIDTH:4.11669
G1 X351.017 Y-24.71 E22.76635
;WIDTH:4.06877
G1 X350.799 Y-24.782 E22.85146
;WIDTH:4.02086
G1 X350.581 Y-24.855 E22.93557
;WIDTH:3.97295
G1 X350.363 Y-24.928 E23.01855
;WIDTH:3.92503
G1 X350.145 Y-25 E23.1003
;WIDTH:3.87712
G1 X349.927 Y-25.073 E23.18104
;WIDTH:3.8292
G1 X349.927 Y25.073 E40.54766
;WIDTH:4.5
G1 X357.051 Y24.055 E43.53162
G1 X357.051 Y-24.055 E63.48033
G1 X361.122 Y-24.055 E65.16836
G1 X361.122 Y24.055 E85.11707
G1 X365.192 Y24.055 E86.80469
G1 X365.192 Y-24.055 E106.7534
G1 X369.263 Y-24.055 E108.44143
G1 X369.263 Y24.055 E128.39014
G1 X373.334 Y24.055 E130.07817
G1 X373.334 Y-24.055 E150.02688
G1 X377.405 Y-24.055 E151.71491
G1 X377.405 Y24.055 E171.66362
G1 X381.476 Y24.055 E173.35165
G1 X381.476 Y-24.055 E193.30036
G1 X385.546 Y-24.055 E194.98798
G1 X385.546 Y24.055 E214.93669
G1 X389.617 Y24.055 E216.62472
G1 X389.617 Y-24.055 E236.57343
G1 X393.688 Y-24.055 E238.26146
G1 X393.688 Y24.055 E258.21017
G1 X397.759 Y24.055 E259.8982
G1 X397.759 Y-24.055 E279.84691
G1 X397.878 Y-24.082 E279.89751
;WIDTH:4.45209
G1 X397.997 Y-24.108 E279.94742
;WIDTH:4.40417
G1 X398.116 Y-24.134 E279.99674
;WIDTH:4.35626
G1 X398.235 Y-24.161 E280.04555
;WIDTH:4.30834
G1 X398.354 Y-24.187 E280.09368
;WIDTH:4.26043
G1 X398.473 Y-24.214 E280.1413
;WIDTH:4.21252
G1 X398.592 Y-24.24 E280.18824
;WIDTH:4.1646
G1 X398.711 Y-24.266 E280.23459
;WIDTH:4.11669
G1 X398.83 Y-24.293 E280.28042
;WIDTH:4.06877
G1 X398.949 Y-24.319 E280.32558
;WIDTH:4.02086
G1 X399.068 Y-24.346 E280.37022
;WIDTH:3.97295
G1 X399.187 Y-24.372 E280.41419
;WIDTH:3.92503
G1 X399.306 Y-24.398 E280.45756
;WIDTH:3.87712
G1 X399.425 Y-24.425 E280.50042
;WIDTH:3.8292
G1 X399.425 Y24.425 E297.41821
M106 S191.25
;LAYER_CHANGE
;Z:46
;HEIGHT:2
G1 E295.41821 F2400
G92 E0
G1 Z46 F7800
G1 X402.108 Y27.108
G1 E2 F2400
;TYPE:Perimeter
;WIDTH:4.5
G1 F3600
G1 X347.892 Y27.108 E24.48055
G1 X347.892 Y-27.108 E46.9611
G1 X402.108 Y-27.108 E69.44165
G1 X402.108 Y26.508 E91.67341
G1 E89.67341 F2400
G92 E0
G1 X406.179 Y31.179 F7800
G1 E2 F2400
G1 F3600
G1 X343.821 Y31.179 E27.85661
G1 X343.821 Y-31.179 E53.71322
G1 X406.179 Y-31.179 E79.56983
G1 X406.179 Y30.579 E105.17765
G1 E103.17765 F2400
G92 E0
G1 X410.25 Y35.25 F7800
G1 E2 F2400
;TYPE:External perimeter
G1 F1800
G1 X339.75 Y35.25 E31.23268
G1 X339.75 Y-35.25 E60.46536
G1 X410.25 Y-35.25 E89.69804
G1 X410.25 Y34.65 E118.68193
G1 X406.294 Y35.243 F7800
G1 E116.68193 F2400
G92 E0
G1 X400.887 Y23.917 F7800
G1 E2 F2400
;TYPE:Internal infill
;WIDTH:4.5
G1 F4800
G1 X350.945 Y23.917 E22.70835
G1 X350.945 Y19.568 E24.51165
G1 X399.055 Y19.568 E44.46036
G1 X399.055 Y15.22 E46.26325
G1 X350.945 Y15.22 E66.21196
G1 X350.945 Y10.871 E68.01526
G1 X399.055 Y10.871 E87.96397
G1 X399.055 Y6.523 E89.76686
G1 X350.945 Y6.523 E109.71557
G1 X350.945 Y2.174 E111.51887
G1 X399.055 Y2.174 E131.46758
G1 X399.055 Y-2.174 E133.27047
G1 X350.945 Y-2.174 E153.21918
G1 X350.945 Y-6.523 E155.02248
G1 X399.055 Y-6.523 E174.97119
G1 X399.055 Y-10.871 E176.77408
G1 X350.945 Y-10.871 E196.72279
G1 X350.945 Y-15.22 E198.52609
G1 X399.055 Y-15.22 E218.4748
G1 X399.055 Y-19.568 E220.27769
G1 X350.945 Y-19.568 E240.2264
G1 X350.945 Y-23.916 E242.02929
G1 X400.887 Y-23.916 E262.73764
;LAYER_CHANGE
;Z:48
;HEIGHT:2
G1 E260.73764 F2400
G92 E0
G1 Z48 F7800
G1 X402.108 Y27.108
G1 E2 F2400
;TYPE:Perimeter
;WIDTH:4.5
G1 F3600
G1 X347.892 Y27.108 E24.48055
G1 X347.892 Y-27.108 E46.9611
G1 X402.108 Y-27.108 E69.44165
G1 X402.108 Y26.508 E91.67341
G1 E89.67341 F2400
G92 E0
G1 X406.179 Y31.179 F7800
G1 E2 F2400
G1 F3600
G1 X343.821 Y31.179 E27.85661
G1 X343.821 Y-31.179 E53.71322
G1 X406.179 Y-31.179 E79.56983
G1 X406.179 Y30.579 E105.17765
G1 E103.17765 F2400
G92 E0
G1 X410.25 Y35.25 F7800
G1 E2 F2400
;TYPE:External perimeter
G1 F1800
G1 X339.75 Y35.25 E31.23268
G1 X339.75 Y-35.25 E60.46536
G1 X410.25 Y-35.25 E89.69804
G1 X410.25 Y34.65 E118.68193
G1 X406.294 Y35.243 F7800
G1 E116.68193 F2400
G92 E0
G1 X398.916 Y25.887 F7800
G1 E2 F2400
;TYPE:Internal infill
;WIDTH:4.5
G1 F4800
G1 X398.916 Y-24.055 E22.70835
G1 X394.568 Y-24.055 E24.51124
G1 X394.568 Y24.055 E44.45995
G1 X390.22 Y24.055 E46.26284
G1 X390.22 Y-24.055 E66.21155
G1 X385.871 Y-24.055 E68.01485
G1 X385.871 Y24.055 E87.96356
G1 X381.523 Y24.055 E89.76645
G1 X381.523 Y-24.055 E109.71516
G1 X377.174 Y-24.055 E111.51846
G1 X377.174 Y24.055 E131.46717
G1 X372.826 Y24.055 E133.27006
G1 X372.826 Y-24.055 E153.21877
G1 X368.477 Y-24.055 E155.02207
G1 X368.477 Y24.055 E174.97078
G1 X364.129 Y24.055 E176.77367
G1 X364.129 Y-24.055 E196.72238
G1 X359.78 Y-24.055 E198.52568
G1 X359.78 Y24.055 E218.47439
G1 X355.432 Y24.055 E220.27728
G1 X355.432 Y-24.055 E240.22599
G1 X351.083 Y-24.055 E242.02929
G1 X351.083 Y25.887 E262.73764
M106 S104.55
;LAYER_CHANGE
;Z:50
;HEIGHT:2
G1 E260.73764 F2400
G92 E0
G1 Z50 F7800
G1 X402.108 Y27.108
G1 E2 F2400
;TYPE:Perimeter
;WIDTH:4.5
G1 F3600
G1 X347.892 Y27.108 E24.48055
G1 X347.892 Y-27.108 E46.9611
G1 X402.108 Y-27.108 E69.44165
G1 X402.108 Y26.508 E91.67341
G1 E89.67341 F2400
G92 E0
G1 X406.179 Y31.179 F7800
G1 E2 F2400
G1 F3600
G1 X343.821 Y31.179 E27.85661
G1 X343.821 Y-31.179 E53.71322
G1 X406.179 Y-31.179 E79.56983
G1 X406.179 Y30.579 E105.17765
G1 E103.17765 F2400
G92 E0
G1 X410.25 Y35.25 F7800
G1 E2 F2400
;TYPE:External perimeter
G1 F1800
G1 X339.75 Y35.25 E31.23268
G1 X339.75 Y-35.25 E60.46536
G1 X410.25 Y-35.25 E89.69804
G1 X410.25 Y34.65 E118.68193
G1 X406.294 Y35.243 F7800
G1 E116.68193 F2400
G92 E0
G1 X399.055 Y22.02 F7800
G1 E2 F2400
;TYPE:Solid infill
G1 F1200
G1 X350.945 Y22.02 E21.94871
G1 X350.872 Y22.238 E22.04404
;WIDTH:4.45209
G1 X350.799 Y22.456 E22.13824
;WIDTH:4.40417
G1 X350.727 Y22.674 E22.23119
;WIDTH:4.35626
G1 X350.654 Y22.892 E22.32315
;WIDTH:4.30834
G1 X350.581 Y23.11 E22.41399
;WIDTH:4.26043
G1 X350.509 Y23.328 E22.50358
;WIDTH:4.21252
G1 X350.436 Y23.546 E22.59217
;WIDTH:4.1646
G1 X350.363 Y23.765 E22.68
;WIDTH:4.11669
G1 X350.29 Y23.983 E22.76635
;WIDTH:4.06877
G1 X350.218 Y24.201 E22.85146
;WIDTH:4.02086
G1 X350.145 Y24.419 E22.93557
;WIDTH:3.97295
G1 X350.072 Y24.637 E23.01855
;WIDTH:3.92503
G1 X350 Y24.855 E23.1003
;WIDTH:3.87712
G1 X349.927 Y25.073 E23.18104
;WIDTH:3.8292
G1 X400.073 Y25.073 E40.54766
;WIDTH:4.5
G1 X399.055 Y17.949 E43.53162
G1 X350.945 Y17.949 E63.48033
G1 X350.945 Y13.878 E65.16836
G1 X399.055 Y13.878 E85.11707
G1 X399.055 Y9.808 E86.80469
G1 X350.945 Y9.808 E106.7534
G1 X350.945 Y5.737 E108.44143
G1 X399.055 Y5.737 E128.39014
G1 X399.055 Y1.666 E130.07817
G1 X350.945 Y1.666 E150.02688
G1 X350.945 Y-2.405 E151.71491
G1 X399.055 Y-2.405 E171.66362
G1 X399.055 Y-6.476 E173.35165
G1 X350.945 Y-6.476 E193.30036
G1 X350.945 Y-10.546 E194.98798
G1 X399.055 Y-10.546 E214.93669
G1 X399.055 Y-14.617 E216.62472
G1 X350.945 Y-14.617 E236.57343
G1 X350.945 Y-18.688 E238.26146
G1 X399.055 Y-18.688 E258.21017
G1 X399.055 Y-22.759 E259.8982
G1 X350.945 Y-22.759 E279.84691
G1 X350.918 Y-22.878 E279.89751
;WIDTH:4.45209
G1 X350.892 Y-22.997 E279.94742
;WIDTH:4.40417
G1 X350.866 Y-23.116 E279.99674
;WIDTH:4.35626
G1 X350.839 Y-23.235 E280.04555
;WIDTH:4.30834
G1 X350.813 Y-23.354 E280.09368
;WIDTH:4.26043
G1 X350.786 Y-23.473 E280.1413
;WIDTH:4.21252
G1 X350.76 Y-23.592 E280.18824
;WIDTH:4.1646
G1 X350.734 Y-23.711 E280.23459
;WIDTH:4.11669
G1 X350.707 Y-23.83 E280.28042
;WIDTH:4.06877
G1 X350.681 Y-23.949 E280.32558
;WIDTH:4.02086
G1 X350.654 Y-24.068 E280.37022
;WIDTH:3.97295
G1 X350.628 Y-24.187 E280.41419
;WIDTH:3.92503
G1 X350.602 Y-24.306 E280.45756
;WIDTH:3.87712
G1 X350.575 Y-24.425 E280.50042
;WIDTH:3.8292
G1 X399.425 Y-24.425 E297.41821
M106 S191.25
;LAYER_CHANGE
;Z:52
;HEIGHT:2
G1 E295.41821 F2400
G92 E0
G1 Z52 F7800
G1 X402.108 Y27.108
G1 E2 F2400
;TYPE:Perimeter
;WIDTH:4.5
G1 F3600
G1 X347.892 Y27.108 E24.48055
G1 X347.892 Y-27.108 E46.9611
G1 X402.108 Y-27.108 E69.44165
G1 X402.108 Y26.508 E91.67341
G1 E89.67341 F2400
G92 E0
G1 X406.179 Y31.179 F7800
G1 E2 F2400
G1 F3600
G1 X343.821 Y31.179 E27.85661
G1 X343.821 Y-31.179 E53.71322
G1 X406.179 Y-31.179 E79.56983
G1 X406.179 Y30.579 E105.17765
G1 E103.17765 F2400
G92 E0
G1 X410.25 Y35.25 F7800
G1 E2 F2400
;TYPE:External perimeter
G1 F1800
G1 X339.75 Y35.25 E31.23268
G1 X339.75 Y-35.25 E60.46536
G1 X410.25 Y-35.25 E89.69804
G1 X410.25 Y34.65 E118.68193
G1 X406.294 Y35.243 F7800
G1 E116.68193 F2400
G92 E0
G1 X398.916 Y25.887 F7800
G1 E2 F2400
;TYPE:Internal infill
;WIDTH:4.5
G1 F4800
G1 X398.916 Y-24.055 E22.70835
G1 X394.568 Y-24.055 E24.51124
G1 X394.568 Y24.055 E44.45995
G1 X390.22 Y24.055 E46.26284
G1 X390.22 Y-24.055 E66.21155
G1 X385.871 Y-24.055 E68.01485
G1 X385.871 Y24.055 E87.96356
G1 X381.523 Y24.055 E89.76645
G1 X381.523 Y-24.055 E109.71516
G1 X377.174 Y-24.055 E111.51846
G1 X377.174 Y24.055 E131.46717
G1 X372.826 Y24.055 E133.27006
G1 X372.826 Y-24.055 E153.21877
G1 X368.477 Y-24.055 E155.02207
G1 X368.477 Y24.055 E174.97078
G1 X364.129 Y24.055 E176.77367
G1 X364.129 Y-24.055 E196.72238
G1 X359.78 Y-24.055 E198.52568
G1 X359.78 Y24.055 E218.47439
G1 X355.432 Y24.055 E220.27728
G1 X355.432 Y-24.055 E240.22599
G1 X351.083 Y-24.055 E242.02929
G1 X351.083 Y25.887 E262.73764
;LAYER_CHANGE
;Z:54
;HEIGHT:2
G1 E260.73764 F2400
G92 E0
G1 Z54 F7800
G1 X402.108 Y27.108
G1 E2 F2400
;TYPE:Perimeter
;WIDTH:4.5
G1 F3600
G1 X347.892 Y27.108 E24.48055
G1 X347.892 Y-27.108 E46.9611
G1 X402.108 Y-27.108 E69.44165
G1 X402.108 Y26.508 E91.67341
G1 E89.67341 F2400
G92 E0
G1 X406.179 Y31.179 F7800
G1 E2 F2400
G1 F3600
G1 X343.821 Y31.179 E27.85661
G1 X343.821 Y-31.179 E53.71322
G1 X406.179 Y-31.179 E79.56983
G1 X406.179 Y30.579 E105.17765
G1 E103.17765 F2400
G92 E0
G1 X410.25 Y35.25 F7800
G1 E2 F2400
;TYPE:External perimeter
G1 F1800
G1 X339.75 Y35.25 E31.23268
G1 X339.75 Y-35.25 E60.46536
G1 X410.25 Y-35.25 E89.69804
G1 X410.25 Y34.65 E118.68193
G1 X406.294 Y35.243 F7800
G1 E116.68193 F2400
G92 E0
G1 X400.887 Y23.917 F7800
G1 E2 F2400
;TYPE:Internal infill
;WIDTH:4.5
G1 F4800
G1 X350.945 Y23.917 E22.70835
G1 X350.945 Y19.568 E24.51165
G1 X399.055 Y19.568 E44.46036
G1 X399.055 Y15.22 E46.26325
G1 X350.945 Y15.22 E66.21196
G1 X350.945 Y10.871 E68.01526
G1 X399.055 Y10.871 E87.96397
G1 X399.055 Y6.523 E89.76686
G1 X350.945 Y6.523 E109.71557
G1 X350.945 Y2.174 E111.51887
G1 X399.055 Y2.174 E131.46758
G1 X399.055 Y-2.174 E133.27047
G1 X350.945 Y-2.174 E153.21918
G1 X350.945 Y-6.523 E155.02248
G1 X399.055 Y-6.523 E174.97119
G1 X399.055 Y-10.871 E176.77408
G1 X350.945 Y-10.871 E196.72279
G1 X350.945 Y-15.22 E198.52609
G1 X399.055 Y-15.22 E218.4748
G1 X399.055 Y-19.568 E220.27769
G1 X350.945 Y-19.568 E240.2264
G1 X350.945 Y-23.916 E242.02929
G1 X400.887 Y-23.916 E262.73764
M106 S102
;LAYER_CHANGE
;Z:56
;HEIGHT:2
G1 E260.73764 F2400
G92 E0
G1 Z56 F7800
G1 X402.108 Y27.108
G1 E2 F2400
;TYPE:Perimeter
;WIDTH:4.5
G1 F3600
G1 X347.892 Y27.108 E24.48055
G1 X347.892 Y-27.108 E46.9611
G1 X402.108 Y-27.108 E69.44165
G1 X402.108 Y26.508 E91.67341
G1 E89.67341 F2400
G92 E0
G1 X406.179 Y31.179 F7800
G1 E2 F2400
G1 F3600
G1 X343.821 Y31.179 E27.85661
G1 X343.821 Y-31.179 E53.71322
G1 X406.179 Y-31.179 E79.56983
G1 X406.179 Y30.579 E105.17765
G1 E103.17765 F2400
G92 E0
G1 X410.25 Y35.25 F7800
G1 E2 F2400
;TYPE:External perimeter
G1 F1800
G1 X339.75 Y35.25 E31.23268
G1 X339.75 Y-35.25 E60.46536
G1 X410.25 Y-35.25 E89.69804
G1 X410.25 Y34.65 E118.68193
G1 X406.294 Y35.243 F7800
G1 E116.68193 F2400
G92 E0
G1 X352.98 Y24.055 F7800
G1 E2 F2400
;TYPE:Solid infill
G1 F1200
G1 X352.98 Y-24.055 E21.94871
G1 X352.762 Y-24.128 E22.04404
;WIDTH:4.45209
G1 X352.544 Y-24.201 E22.13824
;WIDTH:4.40417
G1 X352.326 Y-24.273 E22.23119
;WIDTH:4.35626
G1 X352.108 Y-24.346 E22.32315
;WIDTH:4.30834
G1 X351.89 Y-24.419 E22.41399
;WIDTH:4.26043
G1 X351.672 Y-24.491 E22.50358
;WIDTH:4.21252
G1 X351.454 Y-24.564 E22.59217
;WIDTH:4.1646
G1 X351.235 Y-24.637 E22.68
;WIDTH:4.11669
G1 X351.017 Y-24.71 E22.76635
;WIDTH:4.06877
G1 X350.799 Y-24.782 E22.85146
;WIDTH:4.02086
G1 X350.581 Y-24.855 E22.93557
;WIDTH:3.97295
G1 X350.363 Y-24.928 E23.01855
;WIDTH:3.92503
G1 X350.145 Y-25 E23.1003
;WIDTH:3.87712
G1 X349.927 Y-25.073 E23.18104
;WIDTH:3.8292
G1 X349.927 Y25.073 E40.54766
;WIDTH:4.5
G1 X357.051 Y24.055 E43.53162
G1 X357.051 Y-24.055 E63.48033
G1 X361.122 Y-24.055 E65.16836
G1 X361.122 Y24.055 E85.11707
G1 X365.192 Y24.055 E86.80469
G1 X365.192 Y-24.055 E106.7534
G1 X369.263 Y-24.055 E108.44143
G1 X369.263 Y24.055 E128.39014
G1 X373.334 Y24.055 E130.07817
G1 X373.334 Y-24.055 E150.02688
G1 X377.405 Y-24.055 E151.71491
G1 X377.405 Y24.055 E171.66362
G1 X381.476 Y24.055 E173.35165
G1 X381.476 Y-24.055 E193.30036
G1 X385.546 Y-24.055 E194.98798
G1 X385.546 Y24.055 E214.93669
G1 X389.617 Y24.055 E216.62472
G1 X389.617 Y-24.055 E236.57343
G1 X393.688 Y-24.055 E238.26146
G1 X393.688 Y24.055 E258.21017
G1 X397.759 Y24.055 E259.8982
G1 X397.759 Y-24.055 E279.84691
G1 X397.878 Y-24.082 E279.89751
;WIDTH:4.45209
G1 X397.997 Y-24.108 E279.94742
;WIDTH:4.40417
G1 X398.116 Y-24.134 E279.99674
;WIDTH:4.35626
G1 X398.235 Y-24.161 E280.04555
;WIDTH:4.30834
G1 X398.354 Y-24.187 E280.09368
;WIDTH:4.26043
G1 X398.473 Y-24.214 E280.1413
;WIDTH:4.21252
G1 X398.592 Y-24.24 E280.18824
;WIDTH:4.1646
G1 X398.711 Y-24.266 E280.23459
;WIDTH:4.11669
G1 X398.83 Y-24.293 E280.28042
;WIDTH:4.06877
G1 X398.949 Y-24.319 E280.32558
;WIDTH:4.02086
G1 X399.068 Y-24.346 E280.37022
;WIDTH:3.97295
G1 X399.187 Y-24.372 E280.41419
;WIDTH:3.92503
G1 X399.306 Y-24.398 E280.45756
;WIDTH:3.87712
G1 X399.425 Y-24.425 E280.50042
;WIDTH:3.8292
G1 X399.425 Y24.425 E297.41821
M106 S191.25
;LAYER_CHANGE
;Z:58
;HEIGHT:2
G1 E295.41821 F2400
G92 E0
G1 Z58 F7800
G1 X402.108 Y27.108
G1 E2 F2400
;TYPE:Perimeter
;WIDTH:4.5
G1 F3600
G1 X347.892 Y27.108 E24.48055
G1 X347.892 Y-27.108 E46.9611
G1 X402.108 Y-27.108 E69.44165
G1 X402.108 Y26.508 E91.67341
G1 E89.67341 F2400
G92 E0
G1 X406.179 Y31.179 F7800
G1 E2 F2400
G1 F3600
G1 X343.821 Y31.179 E27.85661
G1 X343.821 Y-31.179 E53.71322
G1 X406.179 Y-31.179 E79.56983
G1 X406.179 Y30.579 E105.17765
G1 E103.17765 F2400
G92 E0
G1 X410.25 Y35.25 F7800
G1 E2 F2400
;TYPE:External perimeter
G1 F1800
G1 X339.75 Y35.25 E31.23268
G1 X339.75 Y-35.25 E60.46536
G1 X410.25 Y-35.25 E89.69804
G1 X410.25 Y34.65 E118.68193
G1 X406.294 Y35.243 F7800
G1 E116.68193 F2400
G92 E0
G1 X400.887 Y23.917 F7800
G1 E2 F2400
;TYPE:Internal infill
;WIDTH:4.5
G1 F4800
G1 X350.945 Y23.917 E22.70835
G1 X350.945 Y19.568 E24.51165
G1 X399.055 Y19.568 E44.46036
G1 X399.055 Y15.22 E46.26325
G1 X350.945 Y15.22 E66.21196
G1 X350.945 Y10.871 E68.01526
G1 X399.055 Y10.871 E87.96397
G1 X399.055 Y6.523 E89.76686
G1 X350.945 Y6.523 E109.71557
G1 X350.945 Y2.174 E111.51887
G1 X399.055 Y2.174 E131.46758
G1 X399.055 Y-2.174 E133.27047
G1 X350.945 Y-2.174 E153.21918
G1 X350.945 Y-6.523 E155.02248
G1 X399.055 Y-6.523 E174.97119
G1 X399.055 Y-10.871 E176.77408
G1 X350.945 Y-10.871 E196.72279
G1 X350.945 Y-15.22 E198.52609
G1 X399.055 Y-15.22 E218.4748
G1 X399.055 Y-19.568 E220.27769
G1 X350.945 Y-19.568 E240.2264
G1 X350.945 Y-23.916 E242.02929
G1 X400.887 Y-23.916 E262.73764
;LAYER_CHANGE
;Z:60
;HEIGHT:2
G1 E260.73764 F2400
G92 E0
G1 Z60 F7800
G1 X402.108 Y27.108
G1 E2 F2400
;TYPE:Perimeter
;WIDTH:4.5
G1 F3600
G1 X347.892 Y27.108 E24.48055
G1 X347.892 Y-27.108 E46.9611
G1 X402.108 Y-27.108 E69.44165
G1 X402.108 Y26.508 E91.67341
G1 E89.67341 F2400
G92 E0
G1 X406.179 Y31.179 F7800
G1 E2 F2400
G1 F3600
G1 X343.821 Y31.179 E27.85661
G1 X343.821 Y-31.179 E53.71322
G1 X406.179 Y-31.179 E79.56983
G1 X406.179 Y30.579 E105.17765
G1 E103.17765 F2400
G92 E0
G1 X410.25 Y35.25 F7800
G1 E2 F2400
;TYPE:External perimeter
G1 F1800
G1 X339.75 Y35.25 E31.23268
G1 X339.75 Y-35.25 E60.46536
G1 X410.25 Y-35.25 E89.69804
G1 X410.25 Y34.65 E118.68193
G1 X406.294 Y35.243 F7800
G1 E116.68193 F2400
G92 E0
G1 X398.916 Y25.887 F7800
G1 E2 F2400
;TYPE:Internal infill
;WIDTH:4.5
G1 F4800
G1 X398.916 Y-24.055 E22.70835
G1 X394.568 Y-24.055 E24.51124
G1 X394.568 Y24.055 E44.45995
G1 X390.22 Y24.055 E46.26284
G1 X390.22 Y-24.055 E66.21155
G1 X385.871 Y-24.055 E68.01485
G1 X385.871 Y24.055 E87.96356
G1 X381.523 Y24.055 E89.76645
G1 X381.523 Y-24.055 E109.71516
G1 X377.174 Y-24.055 E111.51846
G1 X377.174 Y24.055 E131.46717
G1 X372.826 Y24.055 E133.27006
G1 X372.826 Y-24.055 E153.21877
G1 X368.477 Y-24.055 E155.02207
G1 X368.477 Y24.055 E174.97078
G1 X364.129 Y24.055 E176.77367
G1 X364.129 Y-24.055 E196.72238
G1 X359.78 Y-24.055 E198.52568
G1 X359.78 Y24.055 E218.47439
G1 X355.432 Y24.055 E220.27728
G1 X355.432 Y-24.055 E240.22599
G1 X351.083 Y-24.055 E242.02929
G1 X351.083 Y25.887 E262.73764
M106 S104.55
;LAYER_CHANGE
;Z:62
;HEIGHT:2
G1 E260.73764 F2400
G92 E0
G1 Z62 F7800
G1 X402.108 Y27.108
G1 E2 F2400
;TYPE:Perimeter
;WIDTH:4.5
G1 F3600
G1 X347.892 Y27.108 E24.48055
G1 X347.892 Y-27.108 E46.9611
G1 X402.108 Y-27.108 E69.44165
G1 X402.108 Y26.508 E91.67341
G1 E89.67341 F2400
G92 E0
G1 X406.179 Y31.179 F7800
G1 E2 F2400
G1 F3600
G1 X343.821 Y31.179 E27.85661
G1 X343.821 Y-31.179 E53.71322
G1 X406.179 Y-31.179 E79.56983
G1 X406.179 Y30.579 E105.17765
G1 E103.17765 F2400
G92 E0
G1 X410.25 Y35.25 F7800
G1 E2 F2400
;TYPE:External perimeter
G1 F1800
G1 X339.75 Y35.25 E31.23268
G1 X339.75 Y-35.25 E60.46536
G1 X410.25 Y-35.25 E89.69804
G1 X410.25 Y34.65 E118.68193
G1 X406.294 Y35.243 F7800
G1 E116.68193 F2400
G92 E0
G1 X399.055 Y22.02 F7800
G1 E2 F2400
;TYPE:Solid infill
G1 F1200
G1 X350.945 Y22.02 E21.94871
G1 X350.872 Y22.238 E22.04404
;WIDTH:4.45209
G1 X350.799 Y22.456 E22.13824
;WIDTH:4.40417
G1 X350.727 Y22.674 E22.23119
;WIDTH:4.35626
G1 X350.654 Y22.892 E22.32315
;WIDTH:4.30834
G1 X350.581 Y23.11 E22.41399
;WIDTH:4.26043
G1 X350.509 Y23.328 E22.50358
;WIDTH:4.21252
G1 X350.436 Y23.546 E22.59217
;WIDTH:4.1646
G1 X350.363 Y23.765 E22.68
;WIDTH:4.11669
G1 X350.29 Y23.983 E22.76635
;WIDTH:4.06877
G1 X350.218 Y24.201 E22.85146
;WIDTH:4.02086
G1 X350.145 Y24.419 E22.93557
;WIDTH:3.97295
G1 X350.072 Y24.637 E23.01855
;WIDTH:3.92503
G1 X350 Y24.855 E23.1003
;WIDTH:3.87712
G1 X349.927 Y25.073 E23.18104
;WIDTH:3.8292
G1 X400.073 Y25.073 E40.54766
;WIDTH:4.5
G1 X399.055 Y17.949 E43.53162
G1 X350.945 Y17.949 E63.48033
G1 X350.945 Y13.878 E65.16836
G1 X399.055 Y13.878 E85.11707
G1 X399.055 Y9.808 E86.80469
G1 X350.945 Y9.808 E106.7534
G1 X350.945 Y5.737 E108.44143
G1 X399.055 Y5.737 E128.39014
G1 X399.055 Y1.666 E130.07817
G1 X350.945 Y1.666 E150.02688
G1 X350.945 Y-2.405 E151.71491
G1 X399.055 Y-2.405 E171.66362
G1 X399.055 Y-6.476 E173.35165
G1 X350.945 Y-6.476 E193.30036
G1 X350.945 Y-10.546 E194.98798
G1 X399.055 Y-10.546 E214.93669
G1 X399.055 Y-14.617 E216.62472
G1 X350.945 Y-14.617 E236.57343
G1 X350.945 Y-18.688 E238.26146
G1 X399.055 Y-18.688 E258.21017
G1 X399.055 Y-22.759 E259.8982
G1 X350.945 Y-22.759 E279.84691
G1 X350.918 Y-22.878 E279.89751
;WIDTH:4.45209
G1 X350.892 Y-22.997 E279.94742
;WIDTH:4.40417
G1 X350.866 Y-23.116 E279.99674
;WIDTH:4.35626
G1 X350.839 Y-23.235 E280.04555
;WIDTH:4.30834
G1 X350.813 Y-23.354 E280.09368
;WIDTH:4.26043
G1 X350.786 Y-23.473 E280.1413
;WIDTH:4.21252
G1 X350.76 Y-23.592 E280.18824
;WIDTH:4.1646
G1 X350.734 Y-23.711 E280.23459
;WIDTH:4.11669
G1 X350.707 Y-23.83 E280.28042
;WIDTH:4.06877
G1 X350.681 Y-23.949 E280.32558
;WIDTH:4.02086
G1 X350.654 Y-24.068 E280.37022
;WIDTH:3.97295
G1 X350.628 Y-24.187 E280.41419
;WIDTH:3.92503
G1 X350.602 Y-24.306 E280.45756
;WIDTH:3.87712
G1 X350.575 Y-24.425 E280.50042
;WIDTH:3.8292
G1 X399.425 Y-24.425 E297.41821
M106 S191.25
;LAYER_CHANGE
;Z:64
;HEIGHT:2
G1 E295.41821 F2400
G92 E0
G1 Z64 F7800
G1 X402.108 Y27.108
G1 E2 F2400
;TYPE:Perimeter
;WIDTH:4.5
G1 F3600
G1 X347.892 Y27.108 E24.48055
G1 X347.892 Y-27.108 E46.9611
G1 X402.108 Y-27.108 E69.44165
G1 X402.108 Y26.508 E91.67341
G1 E89.67341 F2400
G92 E0
G1 X406.179 Y31.179 F7800
G1 E2 F2400
G1 F3600
G1 X343.821 Y31.179 E27.85661
G1 X343.821 Y-31.179 E53.71322
G1 X406.179 Y-31.179 E79.56983
G1 X406.179 Y30.579 E105.17765
G1 E103.17765 F2400
G92 E0
G1 X410.25 Y35.25 F7800
G1 E2 F2400
;TYPE:External perimeter
G1 F1800
G1 X339.75 Y35.25 E31.23268
G1 X339.75 Y-35.25 E60.46536
G1 X410.25 Y-35.25 E89.69804
G1 X410.25 Y34.65 E118.68193
G1 X406.294 Y35.243 F7800
G1 E116.68193 F2400
G92 E0
G1 X398.916 Y25.887 F7800
G1 E2 F2400
;TYPE:Internal infill
;WIDTH:4.5
G1 F4800
G1 X398.916 Y-24.055 E22.70835
G1 X394.568 Y-24.055 E24.51124
G1 X394.568 Y24.055 E44.45995
G1 X390.22 Y24.055 E46.26284
G1 X390.22 Y-24.055 E66.21155
G1 X385.871 Y-24.055 E68.01485
G1 X385.871 Y24.055 E87.96356
G1 X381.523 Y24.055 E89.76645
G1 X381.523 Y-24.055 E109.71516
G1 X377.174 Y-24.055 E111.51846
G1 X377.174 Y24.055 E131.46717
G1 X372.826 Y24.055 E133.27006
G1 X372.826 Y-24.055 E153.21877
G1 X368.477 Y-24.055 E155.02207
G1 X368.477 Y24.055 E174.97078
G1 X364.129 Y24.055 E176.77367
G1 X364.129 Y-24.055 E196.72238
G1 X359.78 Y-24.055 E198.52568
G1 X359.78 Y24.055 E218.47439
G1 X355.432 Y24.055 E220.27728
G1 X355.432 Y-24.055 E240.22599
G1 X351.083 Y-24.055 E242.02929
G1 X351.083 Y25.887 E262.73764
;LAYER_CHANGE
;Z:66
;HEIGHT:2
G1 E260.73764 F2400
G92 E0
G1 Z66 F7800
G1 X402.108 Y27.108
G1 E2 F2400
;TYPE:Perimeter
;WIDTH:4.5
G1 F3600
G1 X347.892 Y27.108 E24.48055
G1 X347.892 Y-27.108 E46.9611
G1 X402.108 Y-27.108 E69.44165
G1 X402.108 Y26.508 E91.67341
G1 E89.67341 F2400
G92 E0
G1 X406.179 Y31.179 F7800
G1 E2 F2400
G1 F3600
G1 X343.821 Y31.179 E27.85661
G1 X343.821 Y-31.179 E53.71322
G1 X406.179 Y-31.179 E79.56983
G1 X406.179 Y30.579 E105.17765
G1 E103.17765 F2400
G92 E0
G1 X410.25 Y35.25 F7800
G1 E2 F2400
;TYPE:External perimeter
G1 F1800
G1 X339.75 Y35.25 E31.23268
G1 X339.75 Y-35.25 E60.46536
G1 X410.25 Y-35.25 E89.69804
G1 X410.25 Y34.65 E118.68193
G1 X406.294 Y35.243 F7800
G1 E116.68193 F2400
G92 E0
G1 X400.887 Y23.917 F7800
G1 E2 F2400
;TYPE:Internal infill
;WIDTH:4.5
G1 F4800
G1 X350.945 Y23.917 E22.70835
G1 X350.945 Y19.568 E24.51165
G1 X399.055 Y19.568 E44.46036
G1 X399.055 Y15.22 E46.26325
G1 X350.945 Y15.22 E66.21196
G1 X350.945 Y10.871 E68.01526
G1 X399.055 Y10.871 E87.96397
G1 X399.055 Y6.523 E89.76686
G1 X350.945 Y6.523 E109.71557
G1 X350.945 Y2.174 E111.51887
G1 X399.055 Y2.174 E131.46758
G1 X399.055 Y-2.174 E133.27047
G1 X350.945 Y-2.174 E153.21918
G1 X350.945 Y-6.523 E155.02248
G1 X399.055 Y-6.523 E174.97119
G1 X399.055 Y-10.871 E176.77408
G1 X350.945 Y-10.871 E196.72279
G1 X350.945 Y-15.22 E198.52609
G1 X399.055 Y-15.22 E218.4748
G1 X399.055 Y-19.568 E220.27769
G1 X350.945 Y-19.568 E240.2264
G1 X350.945 Y-23.916 E242.02929
G1 X400.887 Y-23.916 E262.73764
M106 S102
;LAYER_CHANGE
;Z:68
;HEIGHT:2
G1 E260.73764 F2400
G92 E0
G1 Z68 F7800
G1 X402.108 Y27.108
G1 E2 F2400
;TYPE:Perimeter
;WIDTH:4.5
G1 F3600
G1 X347.892 Y27.108 E24.48055
G1 X347.892 Y-27.108 E46.9611
G1 X402.108 Y-27.108 E69.44165
G1 X402.108 Y26.508 E91.67341
G1 E89.67341 F2400
G92 E0
G1 X406.179 Y31.179 F7800
G1 E2 F2400
G1 F3600
G1 X343.821 Y31.179 E27.85661
G1 X343.821 Y-31.179 E53.71322
G1 X406.179 Y-31.179 E79.56983
G1 X406.179 Y30.579 E105.17765
G1 E103.17765 F2400
G92 E0
G1 X410.25 Y35.25 F7800
G1 E2 F2400
;TYPE:External perimeter
G1 F1800
G1 X339.75 Y35.25 E31.23268
G1 X339.75 Y-35.25 E60.46536
G1 X410.25 Y-35.25 E89.69804
G1 X410.25 Y34.65 E118.68193
G1 X406.294 Y35.243 F7800
G1 E116.68193 F2400
G92 E0
G1 X352.98 Y24.055 F7800
G1 E2 F2400
;TYPE:Solid infill
G1 F1200
G1 X352.98 Y-24.055 E21.94871
G1 X352.762 Y-24.128 E22.04404
;WIDTH:4.45209
G1 X352.544 Y-24.201 E22.13824
;WIDTH:4.40417
G1 X352.326 Y-24.273 E22.23119
;WIDTH:4.35626
G1 X352.108 Y-24.346 E22.32315
;WIDTH:4.30834
G1 X351.89 Y-24.419 E22.41399
;WIDTH:4.26043
G1 X351.672 Y-24.491 E22.50358
;WIDTH:4.21252
G1 X351.454 Y-24.564 E22.59217
;WIDTH:4.1646
G1 X351.235 Y-24.637 E22.68
;WIDTH:4.11669
G1 X351.017 Y-24.71 E22.76635
;WIDTH:4.06877
G1 X350.799 Y-24.782 E22.85146
;WIDTH:4.02086
G1 X350.581 Y-24.855 E22.93557
;WIDTH:3.97295
G1 X350.363 Y-24.928 E23.01855
;WIDTH:3.92503
G1 X350.145 Y-25 E23.1003
;WIDTH:3.87712
G1 X349.927 Y-25.073 E23.18104
;WIDTH:3.8292
G1 X349.927 Y25.073 E40.54766
;WIDTH:4.5
G1 X357.051 Y24.055 E43.53162
G1 X357.051 Y-24.055 E63.48033
G1 X361.122 Y-24.055 E65.16836
G1 X361.122 Y24.055 E85.11707
G1 X365.192 Y24.055 E86.80469
G1 X365.192 Y-24.055 E106.7534
G1 X369.263 Y-24.055 E108.44143
G1 X369.263 Y24.055 E128.39014
G1 X373.334 Y24.055 E130.07817
G1 X373.334 Y-24.055 E150.02688
G1 X377.405 Y-24.055 E151.71491
G1 X377.405 Y24.055 E171.66362
G1 X381.476 Y24.055 E173.35165
G1 X381.476 Y-24.055 E193.30036
G1 X385.546 Y-24.055 E194.98798
G1 X385.546 Y24.055 E214.93669
G1 X389.617 Y24.055 E216.62472
G1 X389.617 Y-24.055 E236.57343
G1 X393.688 Y-24.055 E238.26146
G1 X393.688 Y24.055 E258.21017
G1 X397.759 Y24.055 E259.8982
G1 X397.759 Y-24.055 E279.84691
G1 X397.878 Y-24.082 E279.89751
;WIDTH:4.45209
G1 X397.997 Y-24.108 E279.94742
;WIDTH:4.40417
G1 X398.116 Y-24.134 E279.99674
;WIDTH:4.35626
G1 X398.235 Y-24.161 E280.04555
;WIDTH:4.30834
G1 X398.354 Y-24.187 E280.09368
;WIDTH:4.26043
G1 X398.473 Y-24.214 E280.1413
;WIDTH:4.21252
G1 X398.592 Y-24.24 E280.18824
;WIDTH:4.1646
G1 X398.711 Y-24.266 E280.23459
;WIDTH:4.11669
G1 X398.83 Y-24.293 E280.28042
;WIDTH:4.06877
G1 X398.949 Y-24.319 E280.32558
;WIDTH:4.02086
G1 X399.068 Y-24.346 E280.37022
;WIDTH:3.97295
G1 X399.187 Y-24.372 E280.41419
;WIDTH:3.92503
G1 X399.306 Y-24.398 E280.45756
;WIDTH:3.87712
G1 X399.425 Y-24.425 E280.50042
;WIDTH:3.8292
G1 X399.425 Y24.425 E297.41821
M106 S191.25
;LAYER_CHANGE
;Z:70
;HEIGHT:2
G1 E295.41821 F2400
G92 E0
G1 Z70 F7800
G1 X402.108 Y27.108
G1 E2 F2400
;TYPE:Perimeter
;WIDTH:4.5
G1 F3600
G1 X347.892 Y27.108 E24.48055
G1 X347.892 Y-27.108 E46.9611
G1 X402.108 Y-27.108 E69.44165
G1 X402.108 Y26.508 E91.67341
G1 E89.67341 F2400
G92 E0
G1 X406.179 Y31.179 F7800
G1 E2 F2400
G1 F3600
G1 X343.821 Y31.179 E27.85661
G1 X343.821 Y-31.179 E53.71322
G1 X406.179 Y-31.179 E79.56983
G1 X406.179 Y30.579 E105.17765
G1 E103.17765 F2400
G92 E0
G1 X410.25 Y35.25 F7800
G1 E2 F2400
;TYPE:External perimeter
G1 F1800
G1 X339.75 Y35.25 E31.23268
G1 X339.75 Y-35.25 E60.46536
G1 X410.25 Y-35.25 E89.69804
G1 X410.25 Y34.65 E118.68193
G1 X406.294 Y35.243 F7800
G1 E116.68193 F2400
G92 E0
G1 X400.887 Y23.917 F7800
G1 E2 F2400
;TYPE:Internal infill
;WIDTH:4.5
G1 F4800
G1 X350.945 Y23.917 E22.70835
G1 X350.945 Y19.568 E24.51165
G1 X399.055 Y19.568 E44.46036
G1 X399.055 Y15.22 E46.26325
G1 X350.945 Y15.22 E66.21196
G1 X350.945 Y10.871 E68.01526
G1 X399.055 Y10.871 E87.96397
G1 X399.055 Y6.523 E89.76686
G1 X350.945 Y6.523 E109.71557
G1 X350.945 Y2.174 E111.51887
G1 X399.055 Y2.174 E131.46758
G1 X399.055 Y-2.174 E133.27047
G1 X350.945 Y-2.174 E153.21918
G1 X350.945 Y-6.523 E155.02248
G1 X399.055 Y-6.523 E174.97119
G1 X399.055 Y-10.871 E176.77408
G1 X350.945 Y-10.871 E196.72279
G1 X350.945 Y-15.22 E198.52609
G1 X399.055 Y-15.22 E218.4748
G1 X399.055 Y-19.568 E220.27769
G1 X350.945 Y-19.568 E240.2264
G1 X350.945 Y-23.916 E242.02929
G1 X400.887 Y-23.916 E262.73764
;LAYER_CHANGE
;Z:72
;HEIGHT:2
G1 E260.73764 F2400
G92 E0
G1 Z72 F7800
G1 X402.108 Y27.108
G1 E2 F2400
;TYPE:Perimeter
;WIDTH:4.5
G1 F3600
G1 X347.892 Y27.108 E24.48055
G1 X347.892 Y-27.108 E46.9611
G1 X402.108 Y-27.108 E69.44165
G1 X402.108 Y26.508 E91.67341
G1 E89.67341 F2400
G92 E0
G1 X406.179 Y31.179 F7800
G1 E2 F2400
G1 F3600
G1 X343.821 Y31.179 E27.85661
G1 X343.821 Y-31.179 E53.71322
G1 X406.179 Y-31.179 E79.56983
G1 X406.179 Y30.579 E105.17765
G1 E103.17765 F2400
G92 E0
G1 X410.25 Y35.25 F7800
G1 E2 F2400
;TYPE:External perimeter
G1 F1800
G1 X339.75 Y35.25 E31.23268
G1 X339.75 Y-35.25 E60.46536
G1 X410.25 Y-35.25 E89.69804
G1 X410.25 Y34.65 E118.68193
G1 X406.294 Y35.243 F7800
G1 E116.68193 F2400
G92 E0
G1 X398.916 Y25.887 F7800
G1 E2 F2400
;TYPE:Internal infill
;WIDTH:4.5
G1 F4800
G1 X398.916 Y-24.055 E22.70835
G1 X394.568 Y-24.055 E24.51124
G1 X394.568 Y24.055 E44.45995
G1 X390.22 Y24.055 E46.26284
G1 X390.22 Y-24.055 E66.21155
G1 X385.871 Y-24.055 E68.01485
G1 X385.871 Y24.055 E87.96356
G1 X381.523 Y24.055 E89.76645
G1 X381.523 Y-24.055 E109.71516
G1 X377.174 Y-24.055 E111.51846
G1 X377.174 Y24.055 E131.46717
G1 X372.826 Y24.055 E133.27006
G1 X372.826 Y-24.055 E153.21877
G1 X368.477 Y-24.055 E155.02207
G1 X368.477 Y24.055 E174.97078
G1 X364.129 Y24.055 E176.77367
G1 X364.129 Y-24.055 E196.72238
G1 X359.78 Y-24.055 E198.52568
G1 X359.78 Y24.055 E218.47439
G1 X355.432 Y24.055 E220.27728
G1 X355.432 Y-24.055 E240.22599
G1 X351.083 Y-24.055 E242.02929
G1 X351.083 Y25.887 E262.73764
M106 S104.55
;LAYER_CHANGE
;Z:74
;HEIGHT:2
G1 E260.73764 F2400
G92 E0
G1 Z74 F7800
G1 X402.108 Y27.108
G1 E2 F2400
;TYPE:Perimeter
;WIDTH:4.5
G1 F3600
G1 X347.892 Y27.108 E24.48055
G1 X347.892 Y-27.108 E46.9611
G1 X402.108 Y-27.108 E69.44165
G1 X402.108 Y26.508 E91.67341
G1 E89.67341 F2400
G92 E0
G1 X406.179 Y31.179 F7800
G1 E2 F2400
G1 F3600
G1 X343.821 Y31.179 E27.85661
G1 X343.821 Y-31.179 E53.71322
G1 X406.179 Y-31.179 E79.56983
G1 X406.179 Y30.579 E105.17765
G1 E103.17765 F2400
G92 E0
G1 X410.25 Y35.25 F7800
G1 E2 F2400
;TYPE:External perimeter
G1 F1800
G1 X339.75 Y35.25 E31.23268
G1 X339.75 Y-35.25 E60.46536
G1 X410.25 Y-35.25 E89.69804
G1 X410.25 Y34.65 E118.68193
G1 X406.294 Y35.243 F7800
G1 E116.68193 F2400
G92 E0
G1 X399.055 Y22.02 F7800
G1 E2 F2400
;TYPE:Solid infill
G1 F1200
G1 X350.945 Y22.02 E21.94871
G1 X350.872 Y22.238 E22.04404
;WIDTH:4.45209
G1 X350.799 Y22.456 E22.13824
;WIDTH:4.40417
G1 X350.727 Y22.674 E22.23119
;WIDTH:4.35626
G1 X350.654 Y22.892 E22.32315
;WIDTH:4.30834
G1 X350.581 Y23.11 E22.41399
;WIDTH:4.26043
G1 X350.509 Y23.328 E22.50358
;WIDTH:4.21252
G1 X350.436 Y23.546 E22.59217
;WIDTH:4.1646
G1 X350.363 Y23.765 E22.68
;WIDTH:4.11669
G1 X350.29 Y23.983 E22.76635
;WIDTH:4.06877
G1 X350.218 Y24.201 E22.85146
;WIDTH:4.02086
G1 X350.145 Y24.419 E22.93557
;WIDTH:3.97295
G1 X350.072 Y24.637 E23.01855
;WIDTH:3.92503
G1 X350 Y24.855 E23.1003
;WIDTH:3.87712
G1 X349.927 Y25.073 E23.18104
;WIDTH:3.8292
G1 X400.073 Y25.073 E40.54766
;WIDTH:4.5
G1 X399.055 Y17.949 E43.53162
G1 X350.945 Y17.949 E63.48033
G1 X350.945 Y13.878 E65.16836
G1 X399.055 Y13.878 E85.11707
G1 X399.055 Y9.808 E86.80469
G1 X350.945 Y9.808 E106.7534
G1 X350.945 Y5.737 E108.44143
G1 X399.055 Y5.737 E128.39014
G1 X399.055 Y1.666 E130.07817
G1 X350.945 Y1.666 E150.02688
G1 X350.945 Y-2.405 E151.71491
G1 X399.055 Y-2.405 E171.66362
G1 X399.055 Y-6.476 E173.35165
G1 X350.945 Y-6.476 E193.30036
G1 X350.945 Y-10.546 E194.98798
G1 X399.055 Y-10.546 E214.93669
G1 X399.055 Y-14.617 E216.62472
G1 X350.945 Y-14.617 E236.57343
G1 X350.945 Y-18.688 E238.26146
G1 X399.055 Y-18.688 E258.21017
G1 X399.055 Y-22.759 E259.8982
G1 X350.945 Y-22.759 E279.84691
G1 X350.918 Y-22.878 E279.89751
;WIDTH:4.45209
G1 X350.892 Y-22.997 E279.94742
;WIDTH:4.40417
G1 X350.866 Y-23.116 E279.99674
;WIDTH:4.35626
G1 X350.839 Y-23.235 E280.04555
;WIDTH:4.30834
G1 X350.813 Y-23.354 E280.09368
;WIDTH:4.26043
G1 X350.786 Y-23.473 E280.1413
;WIDTH:4.21252
G1 X350.76 Y-23.592 E280.18824
;WIDTH:4.1646
G1 X350.734 Y-23.711 E280.23459
;WIDTH:4.11669
G1 X350.707 Y-23.83 E280.28042
;WIDTH:4.06877
G1 X350.681 Y-23.949 E280.32558
;WIDTH:4.02086
G1 X350.654 Y-24.068 E280.37022
;WIDTH:3.97295
G1 X350.628 Y-24.187 E280.41419
;WIDTH:3.92503
G1 X350.602 Y-24.306 E280.45756
;WIDTH:3.87712
G1 X350.575 Y-24.425 E280.50042
;WIDTH:3.8292
G1 X399.425 Y-24.425 E297.41821
G1 E295.41821 F2400
G92 E0
M107
;TYPE:Custom
; Filament-specific end gcode 
;END gcode for filament
M104 S0 ; turn off temperature
G28 X0  ; home X axis
M84     ; disable motors
; objects_info = {"objects":[]}
; filament used [mm] = 21550.86
; filament used [cm3] = 423.15
; total filament used [g] = 0.00
; total filament cost = 0.00
; total filament used for wipe tower [g] = 0.00
; estimated printing time (normal mode) = 23m 25s
; estimated first layer printing time (normal mode) = 55s

; prusaslicer_config = begin
; arc_fitting = disabled
; autoemit_temperature_commands = 1
; automatic_extrusion_widths = 0
; automatic_infill_combination = 0
; automatic_infill_combination_max_layer_height = 100%
; avoid_crossing_curled_overhangs = 0
; avoid_crossing_perimeters = 1
; avoid_crossing_perimeters_max_detour = 0
; bed_custom_model = 
; bed_custom_texture = 
; bed_shape = 0x-375,750x-375,750x375,0x375
; bed_temperature = 0
; bed_temperature_extruder = 0
; before_layer_gcode = 
; between_objects_gcode = 
; binary_gcode = 0
; bottom_fill_pattern = rectilinear
; bottom_solid_layers = 0
; bottom_solid_min_thickness = 0
; bridge_acceleration = 0
; bridge_angle = 0
; bridge_fan_speed = 100
; bridge_flow_ratio = 1
; bridge_speed = 60
; brim_separation = 0
; brim_type = no_brim
; brim_width = 0
; chamber_minimal_temperature = 0
; chamber_temperature = 0
; color_change_gcode = M600
; colorprint_heights = 
; complete_objects = 0
; cooling = 1
; cooling_perimeter_transition_distance = 0
; cooling_slowdown_logic = uniform_cooling
; cooling_tube_length = 5
; cooling_tube_retraction = 91.5
; custom_parameters_filament = ""
; custom_parameters_print = 
; custom_parameters_printer = 
; default_acceleration = 0
; default_filament_profile = 
; default_print_profile = 
; deretract_speed = 0
; disable_fan_first_layers = 3
; dont_support_bridges = 1
; draft_shield = disabled
; duplicate_distance = 6
; elefant_foot_compensation = 0
; enable_dynamic_fan_speeds = 0
; enable_dynamic_overhang_speeds = 0
; end_filament_gcode = "; Filament-specific end gcode \n;END gcode for filament\n"
; end_gcode = M104 S0 ; turn off temperature\nG28 X0  ; home X axis\nM84     ; disable motors\n
; ensure_vertical_shell_thickness = enabled
; external_perimeter_acceleration = 0
; external_perimeter_extrusion_width = 4.5
; external_perimeter_speed = 50%
; external_perimeters_first = 0
; extra_loading_move = -2
; extra_perimeters = 1
; extra_perimeters_on_overhangs = 0
; extruder_clearance_height = 20
; extruder_clearance_radius = 20
; extruder_colour = ""
; extruder_offset = 0x0
; extrusion_axis = E
; extrusion_multiplier = 1
; extrusion_width = 4.5
; fan_always_on = 0
; fan_below_layer_time = 60
; filament_abrasive = 0
; filament_colour = #29B2B2
; filament_cooling_final_speed = 3.4
; filament_cooling_initial_speed = 2.2
; filament_cooling_moves = 4
; filament_cost = 0
; filament_density = 0
; filament_deretract_speed = nil
; filament_diameter = 5
; filament_infill_max_crossing_speed = 5
; filament_infill_max_speed = 0
; filament_load_time = 0
; filament_loading_speed = 28
; filament_loading_speed_start = 3
; filament_max_volumetric_speed = 0
; filament_minimal_purge_on_wipe_tower = 15
; filament_multitool_ramming = 0
; filament_multitool_ramming_flow = 10
; filament_multitool_ramming_volume = 10
; filament_notes = ""
; filament_purge_multiplier = 100%
; filament_ramming_parameters = "120 100 6.6 6.8 7.2 7.6 7.9 8.2 8.7 9.4 9.9 10.0| 0.05 6.6 0.45 6.8 0.95 7.8 1.45 8.3 1.95 9.7 2.45 10 2.95 7.6 3.45 7.6 3.95 7.6 4.45 7.6 4.95 7.6"
; filament_retract_before_travel = nil
; filament_retract_before_wipe = nil
; filament_retract_layer_change = nil
; filament_retract_length = nil
; filament_retract_length_toolchange = nil
; filament_retract_lift = nil
; filament_retract_lift_above = nil
; filament_retract_lift_below = nil
; filament_retract_restart_extra = nil
; filament_retract_restart_extra_toolchange = nil
; filament_retract_speed = nil
; filament_seam_gap_distance = nil
; filament_settings_id = WAAM
; filament_shrinkage_compensation_xy = 0%
; filament_shrinkage_compensation_z = 0%
; filament_soluble = 0
; filament_spool_weight = 0
; filament_stamping_distance = 0
; filament_stamping_loading_speed = 20
; filament_toolchange_delay = 0
; filament_travel_lift_before_obstacle = nil
; filament_travel_max_lift = nil
; filament_travel_ramping_lift = nil
; filament_travel_slope = nil
; filament_type = PLA
; filament_unload_time = 0
; filament_unloading_speed = 90
; filament_unloading_speed_start = 100
; filament_vendor = (Unknown)
; filament_wipe = nil
; fill_angle = 0
; fill_density = 100%
; fill_pattern = rectilinear
; first_layer_acceleration = 0
; first_layer_acceleration_over_raft = 0
; first_layer_bed_temperature = 0
; first_layer_extrusion_width = 4.5
; first_layer_height = 2
; first_layer_infill_speed = 0
; first_layer_speed = 30
; first_layer_speed_over_raft = 30
; first_layer_temperature = 200
; full_fan_speed_layer = 0
; fuzzy_skin = none
; fuzzy_skin_point_dist = 0.8
; fuzzy_skin_thickness = 0.3
; gap_fill_enabled = 1
; gap_fill_speed = 20
; gcode_comments = 0
; gcode_flavor = reprap
; gcode_label_objects = disabled
; gcode_resolution = 0.001
; gcode_substitutions = 
; high_current_on_filament_swap = 0
; host_type = prusalink
; idle_temperature = nil
; infill_acceleration = 0
; infill_anchor = 600%
; infill_anchor_max = 50
; infill_every_layers = 1
; infill_extruder = 1
; infill_extrusion_width = 4.5
; infill_first = 0
; infill_overlap = 25%
; infill_speed = 80
; interface_shells = 0
; interlocking_beam = 0
; interlocking_beam_layer_count = 2
; interlocking_beam_width = 0.8
; interlocking_boundary_avoidance = 2
; interlocking_depth = 2
; interlocking_orientation = 22.5
; ironing = 0
; ironing_flowrate = 15%
; ironing_spacing = 0.1
; ironing_speed = 15
; ironing_type = top
; layer_gcode = 
; layer_height = 2
; machine_limits_usage = time_estimate_only
; machine_max_acceleration_e = 10000,5000
; machine_max_acceleration_extruding = 1500,1250
; machine_max_acceleration_retracting = 1500,1250
; machine_max_acceleration_travel = 1500,1250
; machine_max_acceleration_x = 9000,1000
; machine_max_acceleration_y = 9000,1000
; machine_max_acceleration_z = 500,200
; machine_max_feedrate_e = 120,120
; machine_max_feedrate_x = 500,200
; machine_max_feedrate_y = 500,200
; machine_max_feedrate_z = 12,12
; machine_max_jerk_e = 2.5,2.5
; machine_max_jerk_x = 10,10
; machine_max_jerk_y = 10,10
; machine_max_jerk_z = 0.2,0.4
; machine_max_junction_deviation = 0,0
; machine_min_extruding_rate = 0,0
; machine_min_travel_rate = 0,0
; max_fan_speed = 100
; max_layer_height = 0
; max_print_height = 750
; max_print_speed = 80
; max_volumetric_extrusion_rate_slope_negative = 0
; max_volumetric_extrusion_rate_slope_positive = 0
; max_volumetric_speed = 0
; min_bead_width = 85%
; min_fan_speed = 35
; min_feature_size = 25%
; min_layer_height = 0.07
; min_print_speed = 10
; min_skirt_length = 0
; mmu_segmented_region_interlocking_depth = 0
; mmu_segmented_region_max_width = 0
; multimaterial_purging = 140
; notes = 
; nozzle_diameter = 4
; nozzle_high_flow = 0
; only_one_perimeter_first_layer = 0
; only_retract_when_crossing_perimeters = 0
; ooze_prevention = 0
; output_filename_format = [input_filename_base].gcode
; over_bridge_speed = 0
; overhang_fan_speed_0 = 0
; overhang_fan_speed_1 = 0
; overhang_fan_speed_2 = 0
; overhang_fan_speed_3 = 0
; overhang_speed_0 = 15
; overhang_speed_1 = 15
; overhang_speed_2 = 20
; overhang_speed_3 = 25
; overhangs = 1
; parking_pos_retraction = 92
; pause_print_gcode = M601
; perimeter_acceleration = 0
; perimeter_extruder = 1
; perimeter_extrusion_width = 4.5
; perimeter_generator = arachne
; perimeter_speed = 60
; perimeters = 3
; physical_printer_settings_id = 
; post_process = 
; prefer_clockwise_movements = 0
; print_settings_id = WAAM
; printer_model = 
; printer_notes = 
; printer_settings_id = WAAM
; printer_technology = FFF
; printer_variant = 
; printer_vendor = 
; raft_contact_distance = 0.1
; raft_expansion = 1.5
; raft_first_layer_density = 90%
; raft_first_layer_expansion = 3
; raft_layers = 0
; remaining_times = 0
; resolution = 0.001
; retract_before_travel = 2
; retract_before_wipe = 0%
; retract_layer_change = 0
; retract_length = 2
; retract_length_toolchange = 10
; retract_lift = 0
; retract_lift_above = 0
; retract_lift_below = 0
; retract_restart_extra = 0
; retract_restart_extra_toolchange = 0
; retract_speed = 40
; scarf_seam_entire_loop = 0
; scarf_seam_length = 20
; scarf_seam_max_segment_length = 1
; scarf_seam_on_inner_perimeters = 0
; scarf_seam_only_on_smooth = 1
; scarf_seam_placement = nowhere
; scarf_seam_start_height = 0%
; seam_gap_distance = 15%
; seam_position = aligned
; silent_mode = 1
; single_extruder_multi_material = 0
; single_extruder_multi_material_priming = 1
; skirt_distance = 6
; skirt_height = 0
; skirts = 0
; slice_closing_radius = 0.005
; slicing_mode = regular
; slowdown_below_layer_time = 5
; small_perimeter_speed = 15
; solid_infill_acceleration = 0
; solid_infill_below_area = 70
; solid_infill_every_layers = 3
; solid_infill_extruder = 1
; solid_infill_extrusion_width = 4.5
; solid_infill_speed = 20
; spiral_vase = 0
; staggered_inner_seams = 0
; standby_temperature_delta = -5
; start_filament_gcode = "; Filament gcode\n"
; start_gcode = G28 ; home all axes\nG1 Z5 F5000 ; lift nozzle\n
; support_material = 0
; support_material_angle = 0
; support_material_auto = 0
; support_material_bottom_contact_distance = 0
; support_material_bottom_interface_layers = -1
; support_material_buildplate_only = 0
; support_material_closing_radius = 2
; support_material_contact_distance = 0.2
; support_material_enforce_layers = 0
; support_material_extruder = 1
; support_material_extrusion_width = 3.5
; support_material_interface_contact_loops = 0
; support_material_interface_extruder = 1
; support_material_interface_layers = 3
; support_material_interface_pattern = rectilinear
; support_material_interface_spacing = 0
; support_material_interface_speed = 100%
; support_material_pattern = rectilinear
; support_material_spacing = 2.5
; support_material_speed = 60
; support_material_style = grid
; support_material_synchronize_layers = 0
; support_material_threshold = 0
; support_material_with_sheath = 1
; support_material_xy_spacing = 50%
; support_tree_angle = 40
; support_tree_angle_slow = 25
; support_tree_branch_diameter = 2
; support_tree_branch_diameter_angle = 5
; support_tree_branch_diameter_double_wall = 3
; support_tree_branch_distance = 1
; support_tree_tip_diameter = 0.8
; support_tree_top_rate = 15%
; temperature = 200
; template_custom_gcode = 
; thick_bridges = 1
; thin_walls = 1
; thumbnails = 
; thumbnails_format = PNG
; toolchange_gcode = 
; top_fill_pattern = rectilinear
; top_infill_extrusion_width = 4.5
; top_one_perimeter_type = none
; top_solid_infill_acceleration = 0
; top_solid_infill_speed = 15
; top_solid_layers = 0
; top_solid_min_thickness = 0
; travel_acceleration = 0
; travel_lift_before_obstacle = 0
; travel_max_lift = 0
; travel_ramping_lift = 0
; travel_short_distance_acceleration = 0
; travel_slope = 0
; travel_speed = 130
; travel_speed_z = 0
; use_firmware_retraction = 0
; use_relative_e_distances = 0
; use_volumetric_e = 0
; variable_layer_height = 1
; wall_distribution_count = 1
; wall_transition_angle = 10
; wall_transition_filter_deviation = 25%
; wall_transition_length = 100%
; wipe = 0
; wipe_into_infill = 0
; wipe_into_objects = 0
; wipe_tower = 0
; wipe_tower_acceleration = 0
; wipe_tower_bridging = 10
; wipe_tower_brim_width = 2
; wipe_tower_cone_angle = 0
; wipe_tower_extra_flow = 100%
; wipe_tower_extra_spacing = 100%
; wipe_tower_extruder = 0
; wipe_tower_no_sparse_layers = 0
; wipe_tower_width = 60
; wiping_volumes_matrix = 0
; wiping_volumes_use_custom_matrix = 0
; xy_size_compensation = 0
; z_offset = 0
; prusaslicer_config = end
